{"type":"FeatureCollection","source":"geoBoundaries gbOpen TWN ADM1 (CC BY 4.0)","simplify_tolerance_deg":0.002,"features":[{"type":"Feature","properties":{"iso":"TW-CHA","name_zh":"彰化縣","name_en":"Changhua","label_point":[23.9634,120.5193]},"geometry":{"type":"MultiPolygon","coordinates":[[[[120.679,24.014],[120.656,24.031],[120.652,24.028],[120.647,24.034],[120.645,24.026],[120.636,24.031],[120.625,24.03],[120.628,24.038],[120.623,24.052],[120.625,24.069],[120.619,24.075],[120.613,24.103],[120.588,24.106],[120.584,24.11],[120.573,24.108],[120.545,24.116],[120.541,24.124],[120.533,24.126],[120.524,24.14],[120.526,24.149],[120.508,24.187],[120.504,24.191],[120.486,24.197],[120.462,24.168],[120.468,24.166],[120.463,24.161],[120.439,24.159],[120.415,24.132],[120.411,24.135],[120.413,24.129],[120.403,24.126],[120.38,24.094],[120.377,24.095],[120.38,24.093],[120.382,24.097],[120.389,24.097],[120.394,24.106],[120.412,24.103],[120.419,24.125],[120.436,24.125],[120.438,24.135],[120.459,24.158],[120.439,24.133],[120.431,24.096],[120.435,24.095],[120.435,24.09],[120.427,24.084],[120.42,24.083],[120.411,24.071],[120.404,24.052],[120.4,24.054],[120.381,24.044],[120.376,24.047],[120.38,24.044],[120.375,24.039],[120.372,24.04],[120.349,24.003],[120.347,23.993],[120.351,23.992],[120.346,23.989],[120.33,23.989],[120.323,23.966],[120.304,23.941],[120.314,23.936],[120.314,23.927],[120.305,23.907],[120.289,23.881],[120.288,23.875],[120.273,23.866],[120.269,23.86],[120.27,23.865],[120.264,23.865],[120.259,23.86],[120.263,23.857],[120.252,23.862],[120.25,23.857],[120.257,23.848],[120.274,23.839],[120.272,23.83],[120.308,23.82],[120.358,23.823],[120.37,23.829],[120.41,23.826],[120.433,23.83],[120.452,23.817],[120.508,23.801],[120.552,23.801],[120.591,23.791],[120.629,23.79],[120.64,23.786],[120.664,23.792],[120.675,23.8],[120.684,23.801],[120.682,23.806],[120.679,23.806],[120.676,23.819],[120.651,23.813],[120.638,23.822],[120.639,23.825],[120.634,23.826],[120.64,23.825],[120.634,23.831],[120.637,23.833],[120.624,23.829],[120.634,23.834],[120.629,23.834],[120.63,23.837],[120.625,23.837],[120.629,23.839],[120.626,23.842],[120.622,23.839],[120.621,23.842],[120.617,23.838],[120.616,23.84],[120.624,23.847],[120.619,23.85],[120.623,23.849],[120.628,23.857],[120.622,23.86],[120.62,23.868],[120.624,23.869],[120.63,23.885],[120.627,23.89],[120.633,23.89],[120.635,23.899],[120.631,23.903],[120.634,23.908],[120.629,23.911],[120.635,23.913],[120.634,23.92],[120.636,23.919],[120.637,23.924],[120.628,23.931],[120.635,23.937],[120.638,23.936],[120.63,23.943],[120.635,23.944],[120.628,23.952],[120.634,23.953],[120.627,23.956],[120.635,23.952],[120.643,23.958],[120.647,23.963],[120.646,23.973],[120.65,23.985],[120.637,23.995],[120.638,24.007],[120.64,24.006],[120.646,24.009],[120.673,24.006],[120.674,24.008],[120.67,24.01],[120.679,24.014]]],[[[120.399,24.058],[120.406,24.064],[120.419,24.086],[120.396,24.086],[120.377,24.076],[120.378,24.058],[120.399,24.058]]]]}},{"type":"Feature","properties":{"iso":"TW-CYI","name_zh":"嘉義市","name_en":"Chiayi City","label_point":[23.4825,120.4442]},"geometry":{"type":"Polygon","coordinates":[[[120.389,23.495],[120.39,23.491],[120.395,23.491],[120.394,23.483],[120.399,23.479],[120.399,23.471],[120.394,23.463],[120.411,23.465],[120.415,23.46],[120.429,23.461],[120.43,23.452],[120.438,23.446],[120.436,23.444],[120.44,23.44],[120.452,23.445],[120.455,23.45],[120.465,23.456],[120.469,23.462],[120.477,23.462],[120.489,23.452],[120.495,23.453],[120.501,23.461],[120.5,23.465],[120.509,23.473],[120.502,23.481],[120.504,23.485],[120.501,23.49],[120.489,23.491],[120.484,23.495],[120.483,23.505],[120.474,23.507],[120.47,23.5],[120.464,23.499],[120.456,23.512],[120.457,23.515],[120.447,23.518],[120.441,23.518],[120.441,23.512],[120.434,23.517],[120.433,23.509],[120.417,23.505],[120.412,23.499],[120.408,23.499],[120.409,23.507],[120.4,23.499],[120.39,23.499],[120.389,23.495]]]}},{"type":"Feature","properties":{"iso":"TW-CYQ","name_zh":"嘉義縣","name_en":"Chiayi County","label_point":[23.4452,120.4981]},"geometry":{"type":"MultiPolygon","coordinates":[[[[120.153,23.388],[120.151,23.385],[120.131,23.384],[120.132,23.382],[120.138,23.382],[120.14,23.377],[120.132,23.374],[120.138,23.374],[120.14,23.379],[120.155,23.376],[120.156,23.384],[120.153,23.388]]],[[[120.152,23.518],[120.121,23.519],[120.119,23.496],[120.125,23.489],[120.133,23.488],[120.155,23.494],[120.156,23.484],[120.142,23.469],[120.146,23.466],[120.145,23.46],[120.133,23.451],[120.136,23.448],[120.154,23.458],[120.165,23.449],[120.165,23.443],[120.156,23.448],[120.146,23.439],[120.145,23.429],[120.167,23.429],[120.153,23.426],[120.148,23.415],[120.152,23.399],[120.155,23.404],[120.165,23.405],[120.16,23.404],[120.164,23.393],[120.161,23.389],[120.154,23.389],[120.157,23.385],[120.156,23.375],[120.153,23.375],[120.155,23.363],[120.15,23.356],[120.145,23.36],[120.142,23.345],[120.144,23.366],[120.14,23.366],[120.136,23.358],[120.13,23.36],[120.14,23.372],[120.131,23.372],[120.129,23.359],[120.117,23.343],[120.128,23.339],[120.125,23.335],[120.148,23.321],[120.15,23.313],[120.169,23.307],[120.179,23.292],[120.189,23.29],[120.186,23.297],[120.188,23.301],[120.204,23.292],[120.212,23.292],[120.221,23.296],[120.238,23.327],[120.256,23.331],[120.267,23.341],[120.267,23.345],[120.261,23.344],[120.266,23.353],[120.273,23.353],[120.278,23.348],[120.286,23.35],[120.284,23.36],[120.286,23.367],[120.293,23.375],[120.311,23.375],[120.311,23.386],[120.315,23.388],[120.323,23.384],[120.334,23.386],[120.349,23.401],[120.381,23.403],[120.408,23.413],[120.41,23.41],[120.416,23.41],[120.42,23.403],[120.422,23.407],[120.43,23.406],[120.432,23.411],[120.44,23.414],[120.473,23.398],[120.479,23.388],[120.49,23.396],[120.495,23.394],[120.499,23.387],[120.484,23.379],[120.484,23.37],[120.488,23.373],[120.499,23.368],[120.505,23.369],[120.511,23.364],[120.512,23.356],[120.508,23.353],[120.505,23.355],[120.505,23.345],[120.534,23.336],[120.54,23.328],[120.523,23.312],[120.526,23.295],[120.522,23.288],[120.52,23.272],[120.532,23.255],[120.528,23.245],[120.519,23.239],[120.526,23.232],[120.541,23.228],[120.555,23.217],[120.561,23.217],[120.565,23.221],[120.578,23.215],[120.587,23.224],[120.592,23.24],[120.597,23.229],[120.61,23.223],[120.628,23.229],[120.653,23.225],[120.649,23.229],[120.651,23.236],[120.649,23.249],[120.642,23.257],[120.638,23.269],[120.643,23.276],[120.644,23.296],[120.647,23.297],[120.652,23.291],[120.659,23.296],[120.677,23.288],[120.7,23.284],[120.703,23.289],[120.703,23.298],[120.707,23.305],[120.712,23.309],[120.731,23.306],[120.732,23.314],[120.753,23.327],[120.752,23.331],[120.758,23.335],[120.758,23.344],[120.764,23.342],[120.769,23.344],[120.783,23.342],[120.792,23.357],[120.801,23.361],[120.804,23.37],[120.808,23.368],[120.825,23.372],[120.829,23.376],[120.831,23.386],[120.835,23.387],[120.837,23.393],[120.841,23.395],[120.838,23.398],[120.849,23.412],[120.85,23.42],[120.859,23.425],[120.865,23.424],[120.884,23.436],[120.887,23.435],[120.892,23.447],[120.895,23.446],[120.901,23.454],[120.906,23.453],[120.91,23.458],[120.921,23.459],[120.929,23.455],[120.935,23.459],[120.936,23.464],[120.948,23.464],[120.958,23.469],[120.948,23.467],[120.937,23.473],[120.931,23.471],[120.91,23.476],[120.887,23.476],[120.88,23.468],[120.863,23.474],[120.839,23.471],[120.833,23.475],[120.823,23.499],[120.82,23.521],[120.809,23.536],[120.809,23.546],[120.821,23.562],[120.82,23.578],[120.826,23.586],[120.817,23.595],[120.818,23.599],[120.814,23.601],[120.803,23.597],[120.795,23.597],[120.791,23.601],[120.778,23.602],[120.764,23.612],[120.753,23.615],[120.747,23.611],[120.731,23.611],[120.725,23.604],[120.733,23.597],[120.73,23.594],[120.734,23.584],[120.732,23.577],[120.736,23.57],[120.724,23.572],[120.718,23.569],[120.71,23.571],[120.709,23.576],[120.693,23.577],[120.676,23.571],[120.67,23.579],[120.656,23.572],[120.65,23.573],[120.647,23.577],[120.644,23.575],[120.649,23.584],[120.647,23.588],[120.649,23.592],[120.646,23.594],[120.623,23.59],[120.619,23.584],[120.6,23.583],[120.59,23.586],[120.581,23.582],[120.571,23.588],[120.558,23.589],[120.556,23.593],[120.537,23.595],[120.51,23.619],[120.504,23.635],[120.493,23.633],[120.489,23.636],[120.487,23.631],[120.479,23.633],[120.477,23.63],[120.466,23.63],[120.454,23.626],[120.451,23.627],[120.453,23.631],[120.445,23.631],[120.441,23.626],[120.435,23.626],[120.437,23.622],[120.434,23.623],[120.431,23.619],[120.425,23.618],[120.422,23.62],[120.421,23.625],[120.416,23.621],[120.407,23.625],[120.405,23.634],[120.401,23.632],[120.403,23.627],[120.386,23.621],[120.38,23.61],[120.366,23.608],[120.366,23.602],[120.359,23.595],[120.334,23.593],[120.333,23.579],[120.327,23.574],[120.32,23.572],[120.307,23.575],[120.311,23.564],[120.29,23.562],[120.291,23.551],[120.276,23.544],[120.272,23.531],[120.263,23.534],[120.256,23.546],[120.244,23.544],[120.242,23.54],[120.247,23.515],[120.239,23.508],[120.223,23.504],[120.199,23.513],[120.181,23.51],[120.167,23.517],[120.152,23.518]],[[120.389,23.495],[120.39,23.499],[120.4,23.499],[120.409,23.507],[120.408,23.499],[120.412,23.499],[120.417,23.505],[120.433,23.509],[120.434,23.517],[120.441,23.512],[120.441,23.518],[120.447,23.518],[120.457,23.515],[120.456,23.512],[120.464,23.499],[120.47,23.5],[120.474,23.507],[120.483,23.505],[120.484,23.495],[120.489,23.491],[120.501,23.49],[120.504,23.485],[120.502,23.481],[120.509,23.473],[120.5,23.465],[120.501,23.461],[120.495,23.453],[120.489,23.452],[120.477,23.462],[120.469,23.462],[120.465,23.456],[120.455,23.45],[120.452,23.445],[120.44,23.44],[120.436,23.444],[120.438,23.446],[120.43,23.452],[120.429,23.461],[120.415,23.46],[120.411,23.465],[120.394,23.463],[120.399,23.471],[120.399,23.479],[120.394,23.483],[120.395,23.491],[120.39,23.491],[120.389,23.495]]]]}},{"type":"Feature","properties":{"iso":"TW-HSQ","name_zh":"新竹縣","name_en":"Hsinchu County","label_point":[24.6936,121.1299]},"geometry":{"type":"Polygon","coordinates":[[[120.986,24.94],[120.979,24.931],[120.971,24.928],[120.966,24.904],[120.956,24.891],[120.945,24.869],[120.93,24.853],[120.94,24.85],[120.945,24.841],[120.955,24.835],[120.975,24.83],[120.983,24.831],[120.988,24.825],[121.0,24.822],[121.008,24.816],[121.026,24.799],[121.021,24.799],[121.023,24.796],[121.021,24.794],[121.025,24.789],[121.023,24.785],[121.028,24.783],[121.025,24.78],[121.03,24.777],[121.03,24.766],[121.034,24.764],[121.028,24.758],[121.021,24.757],[121.01,24.774],[120.993,24.781],[120.99,24.777],[120.986,24.777],[120.983,24.773],[120.988,24.768],[120.982,24.767],[120.979,24.763],[120.97,24.765],[120.967,24.756],[120.957,24.75],[120.957,24.745],[120.944,24.744],[120.94,24.733],[120.942,24.73],[120.938,24.729],[120.939,24.717],[120.935,24.713],[120.942,24.707],[120.95,24.711],[120.953,24.704],[120.963,24.711],[120.975,24.711],[120.977,24.706],[120.972,24.703],[120.974,24.697],[120.966,24.691],[120.964,24.684],[120.976,24.685],[120.977,24.674],[120.982,24.672],[120.987,24.664],[120.991,24.665],[120.991,24.661],[120.995,24.659],[120.997,24.655],[121.01,24.656],[121.008,24.644],[121.014,24.641],[121.025,24.641],[121.026,24.636],[121.043,24.627],[121.052,24.615],[121.062,24.622],[121.068,24.615],[121.075,24.612],[121.075,24.604],[121.081,24.6],[121.083,24.59],[121.075,24.581],[121.07,24.563],[121.063,24.557],[121.058,24.559],[121.074,24.549],[121.081,24.541],[121.078,24.529],[121.067,24.523],[121.072,24.498],[121.085,24.501],[121.098,24.496],[121.117,24.508],[121.123,24.51],[121.137,24.507],[121.145,24.512],[121.151,24.506],[121.169,24.503],[121.18,24.508],[121.187,24.505],[121.196,24.507],[121.203,24.513],[121.21,24.511],[121.216,24.516],[121.218,24.51],[121.224,24.507],[121.219,24.498],[121.234,24.488],[121.235,24.484],[121.243,24.477],[121.244,24.47],[121.258,24.463],[121.258,24.458],[121.263,24.455],[121.26,24.429],[121.27,24.427],[121.272,24.43],[121.305,24.433],[121.314,24.437],[121.324,24.458],[121.336,24.467],[121.336,24.472],[121.343,24.482],[121.358,24.486],[121.364,24.495],[121.371,24.498],[121.373,24.51],[121.383,24.51],[121.391,24.523],[121.402,24.529],[121.397,24.539],[121.399,24.548],[121.395,24.556],[121.404,24.569],[121.412,24.573],[121.403,24.592],[121.387,24.587],[121.373,24.594],[121.363,24.603],[121.359,24.617],[121.363,24.621],[121.366,24.632],[121.358,24.634],[121.352,24.643],[121.353,24.668],[121.345,24.667],[121.344,24.669],[121.339,24.667],[121.339,24.679],[121.324,24.695],[121.316,24.698],[121.304,24.693],[121.3,24.695],[121.308,24.72],[121.298,24.733],[121.308,24.755],[121.301,24.764],[121.277,24.771],[121.271,24.775],[121.271,24.778],[121.26,24.782],[121.26,24.793],[121.248,24.797],[121.247,24.804],[121.244,24.809],[121.222,24.799],[121.219,24.812],[121.205,24.807],[121.203,24.817],[121.199,24.815],[121.187,24.823],[121.174,24.828],[121.176,24.832],[121.16,24.837],[121.154,24.844],[121.15,24.844],[121.161,24.86],[121.156,24.881],[121.139,24.882],[121.136,24.878],[121.122,24.88],[121.108,24.886],[121.111,24.891],[121.109,24.898],[121.091,24.893],[121.083,24.899],[121.071,24.9],[121.069,24.903],[121.058,24.905],[121.061,24.924],[121.058,24.93],[121.058,24.937],[121.038,24.946],[121.019,24.94],[121.008,24.946],[121.003,24.94],[120.994,24.939],[120.993,24.935],[120.986,24.94]]]}},{"type":"Feature","properties":{"iso":"TW-HSZ","name_zh":"新竹市","name_en":"Hsinchu City","label_point":[24.7794,120.9583]},"geometry":{"type":"Polygon","coordinates":[[[120.93,24.853],[120.919,24.848],[120.917,24.837],[120.907,24.82],[120.909,24.81],[120.919,24.81],[120.917,24.807],[120.911,24.807],[120.911,24.803],[120.916,24.802],[120.913,24.799],[120.915,24.795],[120.913,24.768],[120.901,24.764],[120.902,24.76],[120.906,24.76],[120.903,24.747],[120.879,24.735],[120.895,24.733],[120.908,24.741],[120.916,24.722],[120.914,24.717],[120.923,24.715],[120.93,24.717],[120.935,24.713],[120.939,24.717],[120.938,24.729],[120.942,24.73],[120.94,24.733],[120.944,24.744],[120.957,24.745],[120.957,24.75],[120.967,24.756],[120.97,24.765],[120.979,24.763],[120.982,24.767],[120.988,24.768],[120.983,24.773],[120.986,24.777],[120.99,24.777],[120.993,24.781],[121.01,24.774],[121.021,24.757],[121.028,24.758],[121.034,24.764],[121.03,24.766],[121.03,24.777],[121.025,24.78],[121.028,24.783],[121.023,24.785],[121.025,24.789],[121.021,24.794],[121.023,24.796],[121.021,24.799],[121.026,24.799],[121.008,24.816],[121.0,24.822],[120.988,24.825],[120.983,24.831],[120.975,24.83],[120.955,24.835],[120.945,24.841],[120.94,24.85],[120.93,24.853]]]}},{"type":"Feature","properties":{"iso":"TW-HUA","name_zh":"花蓮縣","name_en":"Hualien","label_point":[23.8006,121.3766]},"geometry":{"type":"Polygon","coordinates":[[[121.451,24.365],[121.446,24.36],[121.441,24.359],[121.435,24.348],[121.437,24.343],[121.432,24.331],[121.434,24.323],[121.421,24.308],[121.404,24.309],[121.403,24.297],[121.396,24.289],[121.39,24.29],[121.38,24.28],[121.385,24.265],[121.385,24.256],[121.372,24.255],[121.367,24.253],[121.36,24.244],[121.352,24.244],[121.352,24.235],[121.343,24.224],[121.349,24.211],[121.349,24.2],[121.325,24.196],[121.316,24.185],[121.307,24.18],[121.286,24.178],[121.288,24.158],[121.28,24.158],[121.285,24.152],[121.281,24.136],[121.295,24.133],[121.316,24.117],[121.328,24.114],[121.326,24.103],[121.319,24.095],[121.323,24.085],[121.308,24.073],[121.299,24.062],[121.296,24.064],[121.283,24.054],[121.286,24.04],[121.26,23.992],[121.264,23.976],[121.274,23.975],[121.278,23.966],[121.272,23.948],[121.274,23.946],[121.272,23.938],[121.276,23.923],[121.276,23.91],[121.261,23.903],[121.267,23.898],[121.268,23.884],[121.263,23.881],[121.265,23.873],[121.258,23.873],[121.253,23.868],[121.249,23.852],[121.239,23.84],[121.237,23.825],[121.239,23.822],[121.235,23.818],[121.234,23.812],[121.227,23.808],[121.226,23.802],[121.227,23.792],[121.23,23.788],[121.205,23.772],[121.209,23.766],[121.206,23.763],[121.222,23.753],[121.233,23.751],[121.229,23.744],[121.23,23.73],[121.239,23.724],[121.238,23.72],[121.241,23.709],[121.239,23.687],[121.232,23.677],[121.236,23.663],[121.224,23.639],[121.224,23.623],[121.217,23.615],[121.214,23.601],[121.206,23.596],[121.194,23.601],[121.18,23.59],[121.178,23.583],[121.167,23.587],[121.153,23.587],[121.152,23.573],[121.16,23.57],[121.16,23.566],[121.157,23.559],[121.152,23.56],[121.146,23.555],[121.151,23.545],[121.147,23.534],[121.151,23.527],[121.145,23.526],[121.135,23.515],[121.118,23.522],[121.104,23.519],[121.097,23.522],[121.092,23.515],[121.088,23.514],[121.068,23.518],[121.062,23.5],[121.054,23.496],[121.053,23.488],[121.039,23.474],[121.058,23.46],[121.052,23.451],[121.035,23.446],[121.013,23.433],[121.029,23.422],[121.025,23.415],[121.028,23.404],[121.011,23.395],[121.003,23.395],[121.001,23.392],[121.008,23.385],[121.0,23.382],[120.988,23.371],[120.987,23.363],[120.987,23.359],[121.008,23.352],[121.01,23.346],[121.02,23.35],[121.027,23.338],[121.049,23.325],[121.046,23.309],[121.032,23.304],[121.028,23.297],[121.039,23.301],[121.056,23.29],[121.062,23.279],[121.062,23.266],[121.079,23.233],[121.093,23.234],[121.109,23.223],[121.129,23.223],[121.139,23.202],[121.147,23.199],[121.155,23.199],[121.161,23.206],[121.176,23.21],[121.189,23.204],[121.198,23.188],[121.199,23.175],[121.213,23.155],[121.212,23.144],[121.231,23.139],[121.239,23.129],[121.245,23.128],[121.249,23.132],[121.258,23.126],[121.267,23.114],[121.264,23.104],[121.272,23.098],[121.292,23.109],[121.316,23.11],[121.322,23.117],[121.32,23.138],[121.327,23.152],[121.322,23.155],[121.317,23.165],[121.319,23.168],[121.322,23.169],[121.323,23.179],[121.33,23.18],[121.335,23.178],[121.347,23.209],[121.346,23.217],[121.357,23.224],[121.353,23.231],[121.361,23.244],[121.359,23.253],[121.371,23.262],[121.372,23.268],[121.378,23.27],[121.378,23.301],[121.388,23.311],[121.39,23.321],[121.4,23.323],[121.402,23.334],[121.41,23.346],[121.422,23.355],[121.423,23.36],[121.404,23.367],[121.4,23.387],[121.41,23.399],[121.42,23.421],[121.433,23.433],[121.44,23.433],[121.447,23.444],[121.462,23.442],[121.463,23.439],[121.473,23.441],[121.483,23.43],[121.491,23.435],[121.496,23.435],[121.501,23.463],[121.515,23.489],[121.512,23.493],[121.508,23.491],[121.505,23.497],[121.502,23.52],[121.505,23.529],[121.508,23.532],[121.511,23.552],[121.526,23.578],[121.531,23.631],[121.536,23.65],[121.543,23.655],[121.541,23.66],[121.553,23.699],[121.549,23.703],[121.55,23.718],[121.56,23.73],[121.572,23.758],[121.57,23.776],[121.572,23.802],[121.582,23.819],[121.585,23.829],[121.587,23.829],[121.602,23.878],[121.604,23.909],[121.611,23.932],[121.607,23.958],[121.62,23.977],[121.618,23.98],[121.628,23.969],[121.647,24.007],[121.644,24.019],[121.63,24.031],[121.621,24.047],[121.616,24.068],[121.618,24.084],[121.629,24.104],[121.652,24.12],[121.658,24.127],[121.664,24.15],[121.659,24.165],[121.658,24.178],[121.665,24.197],[121.674,24.208],[121.706,24.226],[121.716,24.243],[121.728,24.246],[121.744,24.261],[121.75,24.285],[121.758,24.293],[121.76,24.3],[121.755,24.296],[121.759,24.306],[121.767,24.304],[121.762,24.296],[121.772,24.306],[121.774,24.314],[121.76,24.314],[121.745,24.323],[121.714,24.327],[121.695,24.335],[121.689,24.334],[121.685,24.341],[121.675,24.338],[121.674,24.343],[121.669,24.343],[121.663,24.353],[121.654,24.352],[121.65,24.36],[121.648,24.358],[121.651,24.351],[121.649,24.35],[121.635,24.367],[121.631,24.366],[121.631,24.371],[121.622,24.367],[121.62,24.363],[121.624,24.362],[121.621,24.358],[121.627,24.354],[121.627,24.35],[121.635,24.348],[121.631,24.344],[121.633,24.335],[121.629,24.334],[121.627,24.341],[121.623,24.339],[121.619,24.345],[121.617,24.334],[121.608,24.335],[121.605,24.329],[121.599,24.334],[121.596,24.332],[121.605,24.317],[121.606,24.309],[121.597,24.316],[121.589,24.314],[121.576,24.32],[121.566,24.319],[121.56,24.323],[121.556,24.331],[121.545,24.338],[121.533,24.337],[121.522,24.343],[121.513,24.341],[121.504,24.343],[121.498,24.339],[121.486,24.349],[121.465,24.355],[121.451,24.365]]]}},{"type":"Feature","properties":{"iso":"TW-ILA","name_zh":"宜蘭縣","name_en":"Yilan","label_point":[24.5995,121.6504]},"geometry":{"type":"MultiPolygon","coordinates":[[[[121.318,24.441],[121.327,24.433],[121.326,24.4],[121.331,24.398],[121.338,24.39],[121.342,24.393],[121.354,24.394],[121.364,24.39],[121.369,24.383],[121.366,24.379],[121.369,24.373],[121.373,24.368],[121.381,24.368],[121.387,24.37],[121.389,24.376],[121.4,24.38],[121.407,24.378],[121.437,24.383],[121.442,24.374],[121.447,24.376],[121.451,24.365],[121.465,24.355],[121.486,24.349],[121.498,24.339],[121.504,24.343],[121.513,24.341],[121.522,24.343],[121.533,24.337],[121.545,24.338],[121.556,24.331],[121.56,24.323],[121.566,24.319],[121.576,24.32],[121.589,24.314],[121.597,24.316],[121.606,24.309],[121.605,24.317],[121.596,24.332],[121.599,24.334],[121.605,24.329],[121.608,24.335],[121.617,24.334],[121.619,24.345],[121.623,24.339],[121.627,24.341],[121.629,24.334],[121.633,24.335],[121.631,24.344],[121.635,24.348],[121.627,24.35],[121.627,24.354],[121.621,24.358],[121.624,24.362],[121.62,24.363],[121.622,24.367],[121.631,24.371],[121.631,24.366],[121.635,24.367],[121.649,24.35],[121.651,24.351],[121.648,24.358],[121.65,24.36],[121.654,24.352],[121.663,24.353],[121.669,24.343],[121.674,24.343],[121.675,24.338],[121.685,24.341],[121.689,24.334],[121.695,24.335],[121.714,24.327],[121.745,24.323],[121.76,24.314],[121.774,24.314],[121.771,24.338],[121.787,24.374],[121.79,24.405],[121.799,24.431],[121.821,24.454],[121.822,24.463],[121.844,24.478],[121.862,24.481],[121.851,24.485],[121.851,24.496],[121.839,24.5],[121.839,24.511],[121.843,24.521],[121.869,24.528],[121.874,24.535],[121.876,24.534],[121.872,24.539],[121.874,24.545],[121.869,24.573],[121.872,24.578],[121.879,24.58],[121.872,24.584],[121.877,24.586],[121.882,24.599],[121.886,24.6],[121.885,24.604],[121.865,24.61],[121.859,24.617],[121.85,24.633],[121.841,24.658],[121.837,24.682],[121.837,24.71],[121.822,24.743],[121.818,24.768],[121.819,24.799],[121.827,24.841],[121.851,24.891],[121.858,24.894],[121.866,24.903],[121.872,24.903],[121.885,24.918],[121.888,24.936],[121.895,24.941],[121.904,24.94],[121.904,24.947],[121.919,24.954],[121.918,24.958],[121.926,24.97],[121.941,24.974],[121.956,24.983],[121.966,24.983],[121.961,24.988],[121.945,24.988],[121.934,24.981],[121.915,24.979],[121.91,24.975],[121.903,24.974],[121.897,24.967],[121.889,24.963],[121.872,24.961],[121.861,24.964],[121.847,24.96],[121.841,24.954],[121.839,24.945],[121.854,24.926],[121.832,24.905],[121.819,24.903],[121.812,24.907],[121.805,24.901],[121.792,24.9],[121.793,24.896],[121.782,24.889],[121.785,24.874],[121.777,24.871],[121.776,24.865],[121.768,24.866],[121.761,24.857],[121.745,24.853],[121.73,24.855],[121.714,24.842],[121.702,24.834],[121.696,24.835],[121.696,24.83],[121.688,24.825],[121.69,24.822],[121.688,24.816],[121.681,24.818],[121.674,24.814],[121.669,24.818],[121.661,24.811],[121.647,24.814],[121.645,24.809],[121.626,24.809],[121.626,24.795],[121.621,24.792],[121.61,24.794],[121.606,24.789],[121.592,24.788],[121.598,24.772],[121.589,24.755],[121.596,24.748],[121.592,24.745],[121.595,24.74],[121.594,24.73],[121.597,24.728],[121.587,24.72],[121.578,24.722],[121.575,24.71],[121.57,24.714],[121.556,24.711],[121.551,24.706],[121.543,24.706],[121.538,24.7],[121.537,24.688],[121.528,24.689],[121.524,24.683],[121.512,24.684],[121.493,24.673],[121.487,24.675],[121.457,24.671],[121.448,24.659],[121.451,24.651],[121.445,24.643],[121.445,24.637],[121.436,24.627],[121.428,24.606],[121.419,24.601],[121.413,24.604],[121.403,24.592],[121.412,24.573],[121.404,24.569],[121.395,24.556],[121.399,24.548],[121.397,24.539],[121.402,24.529],[121.391,24.523],[121.383,24.51],[121.373,24.51],[121.371,24.498],[121.364,24.495],[121.358,24.486],[121.343,24.482],[121.336,24.472],[121.336,24.467],[121.324,24.458],[121.318,24.441]]],[[[121.935,24.846],[121.943,24.838],[121.964,24.837],[121.956,24.85],[121.948,24.85],[121.943,24.843],[121.935,24.846]]]]}},{"type":"Feature","properties":{"iso":"TW-KEE","name_zh":"基隆市","name_en":"Keelung","label_point":[25.1248,121.7334]},"geometry":{"type":"MultiPolygon","coordinates":[[[[121.704,25.177],[121.699,25.167],[121.692,25.166],[121.678,25.156],[121.658,25.152],[121.65,25.145],[121.64,25.146],[121.629,25.142],[121.628,25.135],[121.643,25.127],[121.646,25.114],[121.652,25.105],[121.649,25.102],[121.656,25.094],[121.674,25.083],[121.681,25.088],[121.679,25.079],[121.69,25.071],[121.7,25.067],[121.714,25.067],[121.73,25.053],[121.746,25.053],[121.757,25.059],[121.764,25.058],[121.776,25.071],[121.77,25.078],[121.761,25.079],[121.76,25.101],[121.757,25.102],[121.756,25.108],[121.753,25.107],[121.75,25.11],[121.767,25.113],[121.774,25.12],[121.786,25.118],[121.79,25.113],[121.798,25.114],[121.799,25.119],[121.794,25.126],[121.803,25.122],[121.805,25.13],[121.802,25.142],[121.809,25.147],[121.807,25.149],[121.793,25.147],[121.775,25.152],[121.773,25.156],[121.758,25.146],[121.761,25.144],[121.746,25.137],[121.742,25.13],[121.744,25.138],[121.74,25.144],[121.745,25.14],[121.754,25.145],[121.753,25.148],[121.749,25.149],[121.753,25.151],[121.751,25.152],[121.744,25.151],[121.752,25.155],[121.743,25.156],[121.738,25.161],[121.725,25.165],[121.708,25.165],[121.709,25.176],[121.704,25.177]]],[[[121.756,25.16],[121.758,25.157],[121.761,25.159],[121.759,25.154],[121.763,25.151],[121.763,25.154],[121.78,25.159],[121.764,25.164],[121.762,25.16],[121.756,25.16]]]]}},{"type":"Feature","properties":{"iso":"TW-KHH","name_zh":"高雄市","name_en":"Kaohsiung","label_point":[22.9612,120.587]},"geometry":{"type":"MultiPolygon","coordinates":[[[[116.735,20.697],[116.729,20.706],[116.717,20.71],[116.711,20.707],[116.727,20.705],[116.722,20.702],[116.724,20.702],[116.723,20.7],[116.713,20.705],[116.712,20.703],[116.735,20.697]]],[[[120.315,22.553],[120.318,22.555],[120.297,22.576],[120.283,22.6],[120.284,22.594],[120.281,22.597],[120.278,22.608],[120.275,22.607],[120.277,22.61],[120.274,22.609],[120.271,22.612],[120.275,22.612],[120.265,22.616],[120.263,22.61],[120.265,22.611],[120.274,22.601],[120.305,22.56],[120.315,22.553]]],[[[120.653,23.225],[120.656,23.218],[120.651,23.208],[120.644,23.204],[120.637,23.19],[120.641,23.183],[120.636,23.175],[120.629,23.174],[120.631,23.17],[120.621,23.163],[120.617,23.163],[120.611,23.156],[120.612,23.152],[120.601,23.144],[120.589,23.124],[120.588,23.114],[120.574,23.095],[120.574,23.091],[120.555,23.069],[120.53,23.056],[120.504,23.029],[120.484,23.017],[120.48,23.003],[120.46,23.003],[120.461,22.991],[120.455,22.991],[120.453,22.978],[120.445,22.98],[120.443,22.977],[120.416,22.916],[120.409,22.912],[120.399,22.922],[120.387,22.918],[120.382,22.921],[120.371,22.912],[120.372,22.907],[120.359,22.901],[120.361,22.898],[120.353,22.892],[120.355,22.89],[120.352,22.887],[120.349,22.891],[120.332,22.889],[120.325,22.9],[120.319,22.895],[120.314,22.9],[120.285,22.905],[120.278,22.904],[120.28,22.896],[120.273,22.895],[120.259,22.902],[120.257,22.899],[120.259,22.895],[120.255,22.894],[120.243,22.903],[120.233,22.906],[120.23,22.917],[120.218,22.91],[120.192,22.921],[120.175,22.912],[120.193,22.863],[120.193,22.859],[120.189,22.858],[120.193,22.848],[120.197,22.85],[120.209,22.817],[120.202,22.813],[120.204,22.806],[120.211,22.808],[120.215,22.804],[120.233,22.764],[120.229,22.761],[120.234,22.76],[120.251,22.727],[120.248,22.724],[120.253,22.724],[120.256,22.718],[120.262,22.701],[120.26,22.696],[120.264,22.698],[120.264,22.705],[120.267,22.707],[120.264,22.708],[120.275,22.707],[120.275,22.701],[120.271,22.701],[120.271,22.698],[120.275,22.698],[120.275,22.696],[120.271,22.696],[120.274,22.695],[120.271,22.688],[120.275,22.684],[120.268,22.68],[120.266,22.69],[120.262,22.691],[120.264,22.673],[120.251,22.664],[120.252,22.645],[120.263,22.627],[120.263,22.624],[120.257,22.621],[120.266,22.622],[120.267,22.617],[120.27,22.618],[120.269,22.624],[120.27,22.618],[120.276,22.619],[120.288,22.614],[120.28,22.62],[120.289,22.616],[120.291,22.619],[120.29,22.612],[120.297,22.61],[120.299,22.598],[120.311,22.602],[120.299,22.597],[120.3,22.591],[120.292,22.607],[120.282,22.61],[120.298,22.584],[120.306,22.587],[120.3,22.582],[120.31,22.57],[120.315,22.573],[120.316,22.57],[120.319,22.57],[120.315,22.567],[120.311,22.569],[120.322,22.557],[120.329,22.562],[120.331,22.56],[120.326,22.557],[120.332,22.549],[120.34,22.555],[120.336,22.549],[120.34,22.544],[120.347,22.547],[120.343,22.543],[120.349,22.538],[120.34,22.541],[120.336,22.539],[120.337,22.537],[120.332,22.539],[120.322,22.551],[120.317,22.551],[120.311,22.546],[120.325,22.53],[120.331,22.533],[120.326,22.53],[120.33,22.526],[120.333,22.529],[120.337,22.525],[120.335,22.522],[120.351,22.508],[120.361,22.508],[120.397,22.481],[120.411,22.476],[120.424,22.477],[120.426,22.498],[120.423,22.519],[120.431,22.544],[120.437,22.548],[120.442,22.56],[120.447,22.586],[120.446,22.599],[120.437,22.607],[120.434,22.618],[120.436,22.662],[120.44,22.678],[120.448,22.689],[120.453,22.704],[120.456,22.722],[120.454,22.771],[120.464,22.8],[120.469,22.831],[120.476,22.838],[120.491,22.835],[120.493,22.837],[120.498,22.832],[120.51,22.829],[120.531,22.833],[120.536,22.829],[120.553,22.828],[120.605,22.873],[120.615,22.877],[120.621,22.876],[120.645,22.885],[120.649,22.877],[120.655,22.882],[120.658,22.88],[120.661,22.86],[120.672,22.856],[120.677,22.857],[120.679,22.863],[120.691,22.865],[120.704,22.881],[120.725,22.881],[120.731,22.876],[120.742,22.874],[120.749,22.866],[120.755,22.865],[120.762,22.857],[120.764,22.849],[120.779,22.835],[120.793,22.841],[120.793,22.852],[120.801,22.851],[120.825,22.866],[120.837,22.864],[120.847,22.852],[120.853,22.858],[120.865,22.843],[120.87,22.858],[120.859,22.863],[120.864,22.867],[120.865,22.872],[120.86,22.878],[120.84,22.882],[120.833,22.9],[120.829,22.904],[120.833,22.912],[120.822,22.935],[120.825,22.953],[120.821,22.962],[120.83,22.97],[120.829,22.974],[120.832,22.98],[120.841,22.984],[120.842,22.991],[120.849,22.995],[120.852,23.0],[120.851,23.005],[120.858,23.005],[120.861,23.008],[120.862,23.031],[120.88,23.036],[120.88,23.048],[120.869,23.06],[120.886,23.089],[120.889,23.11],[120.885,23.119],[120.888,23.122],[120.886,23.144],[120.876,23.151],[120.895,23.161],[120.899,23.176],[120.911,23.182],[120.912,23.19],[120.906,23.199],[120.907,23.205],[120.912,23.209],[120.912,23.228],[120.916,23.238],[120.926,23.244],[120.931,23.242],[120.938,23.245],[120.941,23.252],[120.947,23.253],[120.972,23.282],[120.987,23.28],[121.01,23.293],[121.024,23.294],[121.032,23.304],[121.046,23.309],[121.048,23.314],[121.049,23.325],[121.027,23.338],[121.02,23.35],[121.01,23.346],[121.008,23.352],[121.0,23.356],[120.987,23.359],[120.988,23.371],[121.0,23.382],[121.008,23.385],[121.001,23.392],[121.003,23.395],[121.011,23.395],[121.028,23.404],[121.025,23.415],[121.029,23.422],[121.023,23.425],[121.021,23.429],[121.014,23.431],[121.015,23.435],[121.01,23.441],[121.01,23.445],[121.016,23.452],[121.008,23.463],[120.999,23.462],[120.967,23.472],[120.948,23.464],[120.936,23.464],[120.935,23.459],[120.929,23.455],[120.921,23.459],[120.91,23.458],[120.906,23.453],[120.901,23.454],[120.895,23.446],[120.892,23.447],[120.887,23.435],[120.884,23.436],[120.865,23.424],[120.859,23.425],[120.85,23.42],[120.849,23.412],[120.838,23.398],[120.841,23.395],[120.837,23.393],[120.835,23.387],[120.831,23.386],[120.829,23.376],[120.825,23.372],[120.808,23.368],[120.804,23.37],[120.801,23.361],[120.792,23.357],[120.783,23.342],[120.769,23.344],[120.764,23.342],[120.758,23.344],[120.758,23.335],[120.752,23.331],[120.753,23.327],[120.732,23.314],[120.731,23.306],[120.712,23.309],[120.707,23.305],[120.703,23.298],[120.703,23.289],[120.7,23.284],[120.677,23.288],[120.659,23.296],[120.652,23.291],[120.647,23.297],[120.644,23.296],[120.643,23.276],[120.638,23.269],[120.642,23.257],[120.649,23.249],[120.651,23.236],[120.649,23.229],[120.653,23.225]]]]}},{"type":"Feature","properties":{"iso":"TW-KIN","name_zh":"金門縣","name_en":"Kinmen","label_point":[24.4501,118.3874]},"geometry":{"type":"MultiPolygon","coordinates":[[[[118.228,24.434],[118.226,24.428],[118.22,24.426],[118.222,24.428],[118.219,24.429],[118.217,24.426],[118.22,24.417],[118.216,24.412],[118.212,24.412],[118.226,24.405],[118.234,24.414],[118.241,24.415],[118.241,24.411],[118.246,24.414],[118.247,24.421],[118.251,24.424],[118.26,24.424],[118.258,24.421],[118.263,24.423],[118.265,24.426],[118.263,24.426],[118.263,24.434],[118.267,24.437],[118.268,24.443],[118.246,24.453],[118.244,24.449],[118.23,24.447],[118.228,24.434]]],[[[118.301,24.425],[118.287,24.425],[118.301,24.425],[118.299,24.422],[118.302,24.421],[118.297,24.414],[118.291,24.414],[118.289,24.421],[118.289,24.416],[118.278,24.413],[118.291,24.405],[118.296,24.396],[118.305,24.396],[118.309,24.391],[118.32,24.386],[118.331,24.388],[118.336,24.402],[118.352,24.422],[118.384,24.435],[118.4,24.436],[118.408,24.432],[118.409,24.429],[118.411,24.431],[118.409,24.428],[118.429,24.426],[118.434,24.414],[118.426,24.411],[118.433,24.413],[118.434,24.41],[118.424,24.408],[118.435,24.408],[118.449,24.416],[118.455,24.416],[118.455,24.424],[118.458,24.426],[118.46,24.424],[118.465,24.428],[118.461,24.438],[118.466,24.442],[118.469,24.44],[118.473,24.441],[118.473,24.445],[118.47,24.445],[118.473,24.452],[118.466,24.453],[118.462,24.464],[118.461,24.475],[118.468,24.48],[118.464,24.482],[118.461,24.479],[118.456,24.482],[118.453,24.489],[118.455,24.495],[118.449,24.496],[118.448,24.5],[118.45,24.509],[118.432,24.509],[118.426,24.524],[118.428,24.526],[118.419,24.528],[118.414,24.525],[118.408,24.529],[118.41,24.517],[118.393,24.51],[118.392,24.498],[118.395,24.492],[118.387,24.483],[118.379,24.484],[118.384,24.48],[118.386,24.469],[118.375,24.461],[118.35,24.464],[118.314,24.49],[118.31,24.49],[118.311,24.487],[118.292,24.478],[118.289,24.47],[118.303,24.462],[118.302,24.454],[118.309,24.441],[118.308,24.431],[118.311,24.427],[118.301,24.425]]]]}},{"type":"Feature","properties":{"iso":"TW-LIE","name_zh":"連江縣（馬祖）","name_en":"Lienchiang (Matsu)","label_point":[26.1567,119.934]},"geometry":{"type":"MultiPolygon","coordinates":[[[[119.931,25.967],[119.945,25.975],[119.948,25.982],[119.924,25.98],[119.929,25.971],[119.933,25.97],[119.931,25.967]]],[[[119.918,26.165],[119.912,26.16],[119.918,26.158],[119.909,26.145],[119.917,26.141],[119.923,26.142],[119.925,26.138],[119.931,26.139],[119.929,26.142],[119.934,26.145],[119.938,26.143],[119.944,26.144],[119.95,26.153],[119.956,26.151],[119.968,26.169],[119.957,26.168],[119.955,26.164],[119.952,26.168],[119.941,26.166],[119.944,26.165],[119.94,26.162],[119.943,26.158],[119.937,26.153],[119.935,26.159],[119.924,26.162],[119.928,26.172],[119.923,26.171],[119.916,26.175],[119.918,26.165]]],[[[119.976,25.968],[119.971,25.967],[119.968,25.96],[119.964,25.958],[119.962,25.949],[119.971,25.956],[119.974,25.953],[119.979,25.956],[119.979,25.96],[119.984,25.962],[119.989,25.969],[119.986,25.971],[119.983,25.967],[119.976,25.968]]],[[[119.971,26.213],[119.966,26.207],[119.969,26.205],[119.966,26.205],[119.966,26.194],[119.971,26.195],[119.974,26.192],[119.976,26.194],[119.972,26.199],[119.972,26.207],[119.975,26.214],[119.985,26.219],[119.989,26.218],[119.99,26.214],[120.001,26.223],[119.999,26.219],[120.006,26.222],[120.012,26.214],[120.013,26.218],[120.01,26.22],[120.016,26.228],[120.01,26.228],[120.004,26.223],[120.007,26.234],[119.995,26.238],[119.983,26.225],[119.967,26.221],[119.971,26.213]]],[[[119.982,26.266],[119.99,26.27],[119.989,26.273],[119.992,26.276],[119.989,26.28],[119.991,26.285],[119.986,26.28],[119.983,26.281],[119.984,26.274],[119.979,26.272],[119.982,26.266]]],[[[120.486,26.37],[120.482,26.371],[120.483,26.377],[120.48,26.384],[120.474,26.383],[120.475,26.38],[120.47,26.377],[120.469,26.371],[120.477,26.379],[120.478,26.368],[120.485,26.37],[120.486,26.364],[120.482,26.364],[120.482,26.358],[120.484,26.356],[120.486,26.36],[120.488,26.357],[120.493,26.359],[120.494,26.357],[120.501,26.368],[120.511,26.365],[120.507,26.373],[120.499,26.372],[120.5,26.378],[120.494,26.377],[120.492,26.371],[120.486,26.37]]]]}},{"type":"Feature","properties":{"iso":"TW-MIA","name_zh":"苗栗縣","name_en":"Miaoli","label_point":[24.4992,120.9904]},"geometry":{"type":"Polygon","coordinates":[[[120.935,24.713],[120.93,24.717],[120.923,24.715],[120.914,24.717],[120.916,24.722],[120.908,24.741],[120.895,24.733],[120.879,24.735],[120.866,24.724],[120.86,24.703],[120.832,24.677],[120.831,24.669],[120.817,24.669],[120.78,24.661],[120.761,24.639],[120.761,24.633],[120.752,24.62],[120.753,24.613],[120.745,24.607],[120.736,24.612],[120.723,24.606],[120.711,24.586],[120.686,24.52],[120.666,24.49],[120.665,24.482],[120.644,24.456],[120.622,24.44],[120.629,24.438],[120.64,24.428],[120.646,24.412],[120.664,24.402],[120.67,24.392],[120.679,24.387],[120.677,24.384],[120.69,24.374],[120.693,24.367],[120.707,24.362],[120.707,24.358],[120.73,24.352],[120.763,24.326],[120.784,24.318],[120.807,24.316],[120.833,24.291],[120.849,24.289],[120.876,24.295],[120.903,24.292],[120.912,24.294],[120.922,24.304],[120.917,24.335],[120.936,24.343],[120.942,24.339],[120.957,24.339],[120.966,24.333],[120.982,24.336],[120.992,24.33],[121.004,24.333],[121.014,24.32],[121.018,24.311],[121.029,24.305],[121.034,24.298],[121.049,24.296],[121.055,24.31],[121.07,24.316],[121.074,24.319],[121.073,24.323],[121.081,24.324],[121.087,24.318],[121.092,24.319],[121.108,24.331],[121.115,24.329],[121.122,24.331],[121.124,24.341],[121.128,24.342],[121.141,24.36],[121.148,24.358],[121.168,24.361],[121.174,24.369],[121.173,24.373],[121.183,24.381],[121.19,24.382],[121.197,24.397],[121.21,24.396],[121.216,24.379],[121.232,24.384],[121.235,24.397],[121.244,24.406],[121.243,24.419],[121.25,24.425],[121.258,24.425],[121.263,24.455],[121.258,24.458],[121.258,24.463],[121.244,24.47],[121.243,24.477],[121.235,24.484],[121.234,24.488],[121.219,24.498],[121.224,24.507],[121.218,24.51],[121.218,24.514],[121.203,24.513],[121.196,24.507],[121.187,24.505],[121.18,24.508],[121.169,24.503],[121.151,24.506],[121.145,24.512],[121.137,24.507],[121.123,24.51],[121.098,24.496],[121.085,24.501],[121.072,24.498],[121.067,24.523],[121.078,24.529],[121.081,24.541],[121.074,24.549],[121.058,24.559],[121.063,24.557],[121.07,24.563],[121.075,24.581],[121.083,24.59],[121.081,24.6],[121.075,24.604],[121.075,24.612],[121.068,24.615],[121.062,24.622],[121.052,24.615],[121.043,24.627],[121.026,24.636],[121.025,24.641],[121.014,24.641],[121.008,24.644],[121.01,24.656],[120.997,24.655],[120.995,24.659],[120.991,24.661],[120.991,24.665],[120.987,24.664],[120.982,24.672],[120.977,24.674],[120.976,24.685],[120.964,24.684],[120.966,24.691],[120.974,24.697],[120.972,24.703],[120.977,24.706],[120.975,24.711],[120.963,24.711],[120.953,24.704],[120.95,24.711],[120.942,24.707],[120.935,24.713]]]}},{"type":"Feature","properties":{"iso":"TW-NAN","name_zh":"南投縣","name_en":"Nantou","label_point":[23.8565,120.9472]},"geometry":{"type":"Polygon","coordinates":[[[120.958,23.469],[120.967,23.472],[120.999,23.462],[121.008,23.463],[121.016,23.452],[121.01,23.445],[121.015,23.435],[121.026,23.439],[121.035,23.446],[121.052,23.451],[121.059,23.462],[121.051,23.464],[121.039,23.474],[121.053,23.488],[121.054,23.496],[121.062,23.5],[121.068,23.518],[121.088,23.514],[121.092,23.515],[121.097,23.522],[121.104,23.519],[121.118,23.522],[121.135,23.515],[121.145,23.526],[121.151,23.527],[121.147,23.534],[121.151,23.545],[121.146,23.555],[121.152,23.56],[121.157,23.559],[121.16,23.566],[121.16,23.57],[121.152,23.573],[121.153,23.587],[121.167,23.587],[121.178,23.583],[121.18,23.59],[121.194,23.601],[121.206,23.596],[121.214,23.601],[121.217,23.615],[121.224,23.623],[121.224,23.639],[121.236,23.663],[121.232,23.677],[121.239,23.687],[121.241,23.709],[121.238,23.72],[121.239,23.724],[121.23,23.73],[121.229,23.744],[121.233,23.751],[121.222,23.753],[121.206,23.763],[121.209,23.766],[121.205,23.772],[121.23,23.788],[121.227,23.792],[121.226,23.802],[121.227,23.808],[121.234,23.812],[121.235,23.818],[121.239,23.822],[121.237,23.825],[121.239,23.84],[121.249,23.852],[121.253,23.868],[121.258,23.873],[121.265,23.873],[121.263,23.881],[121.268,23.884],[121.267,23.898],[121.261,23.903],[121.276,23.91],[121.276,23.923],[121.272,23.938],[121.274,23.946],[121.272,23.948],[121.278,23.966],[121.274,23.975],[121.264,23.976],[121.26,23.992],[121.286,24.04],[121.283,24.054],[121.296,24.064],[121.299,24.062],[121.308,24.073],[121.323,24.085],[121.319,24.095],[121.326,24.103],[121.328,24.114],[121.316,24.117],[121.295,24.133],[121.281,24.136],[121.285,24.152],[121.28,24.158],[121.288,24.158],[121.286,24.178],[121.307,24.18],[121.316,24.185],[121.325,24.196],[121.349,24.2],[121.349,24.211],[121.343,24.224],[121.336,24.229],[121.314,24.235],[121.304,24.234],[121.301,24.237],[121.293,24.229],[121.28,24.23],[121.277,24.236],[121.269,24.238],[121.265,24.246],[121.255,24.243],[121.244,24.222],[121.238,24.22],[121.23,24.224],[121.231,24.226],[121.219,24.229],[121.208,24.222],[121.196,24.223],[121.191,24.216],[121.181,24.212],[121.168,24.225],[121.161,24.215],[121.148,24.213],[121.141,24.2],[121.136,24.196],[121.108,24.198],[121.102,24.196],[121.085,24.176],[121.065,24.163],[121.059,24.163],[121.053,24.155],[121.048,24.16],[121.038,24.158],[121.033,24.149],[121.028,24.16],[121.02,24.159],[121.008,24.147],[121.0,24.128],[120.992,24.125],[120.989,24.119],[120.976,24.117],[120.971,24.12],[120.961,24.12],[120.95,24.128],[120.933,24.113],[120.92,24.107],[120.91,24.109],[120.905,24.114],[120.892,24.116],[120.894,24.107],[120.891,24.098],[120.886,24.095],[120.878,24.085],[120.877,24.091],[120.882,24.101],[120.879,24.109],[120.872,24.117],[120.859,24.116],[120.854,24.125],[120.845,24.125],[120.836,24.117],[120.83,24.103],[120.832,24.099],[120.828,24.094],[120.829,24.072],[120.814,24.07],[120.808,24.065],[120.797,24.041],[120.792,24.035],[120.793,24.032],[120.775,24.019],[120.771,24.009],[120.758,24.006],[120.746,23.999],[120.732,24.009],[120.719,24.01],[120.706,24.005],[120.679,24.014],[120.67,24.01],[120.674,24.008],[120.673,24.006],[120.646,24.009],[120.64,24.006],[120.638,24.007],[120.637,23.995],[120.65,23.985],[120.646,23.973],[120.647,23.963],[120.643,23.958],[120.635,23.952],[120.627,23.956],[120.634,23.953],[120.628,23.952],[120.635,23.944],[120.63,23.943],[120.638,23.936],[120.635,23.937],[120.628,23.931],[120.637,23.924],[120.636,23.919],[120.634,23.92],[120.635,23.913],[120.629,23.911],[120.634,23.908],[120.631,23.903],[120.635,23.899],[120.633,23.89],[120.627,23.89],[120.63,23.885],[120.624,23.869],[120.62,23.868],[120.622,23.86],[120.628,23.857],[120.623,23.849],[120.619,23.85],[120.624,23.847],[120.616,23.84],[120.617,23.838],[120.621,23.842],[120.622,23.839],[120.626,23.842],[120.629,23.839],[120.625,23.837],[120.63,23.837],[120.629,23.834],[120.634,23.834],[120.624,23.829],[120.637,23.833],[120.634,23.831],[120.64,23.825],[120.634,23.826],[120.639,23.825],[120.638,23.822],[120.651,23.813],[120.676,23.819],[120.679,23.806],[120.682,23.806],[120.684,23.801],[120.675,23.8],[120.664,23.792],[120.64,23.786],[120.656,23.755],[120.656,23.735],[120.645,23.737],[120.64,23.73],[120.642,23.722],[120.639,23.711],[120.646,23.703],[120.643,23.7],[120.648,23.683],[120.647,23.673],[120.635,23.652],[120.635,23.643],[120.629,23.635],[120.631,23.622],[120.634,23.619],[120.645,23.631],[120.653,23.63],[120.651,23.616],[120.669,23.609],[120.684,23.611],[120.686,23.618],[120.691,23.62],[120.702,23.617],[120.71,23.619],[120.714,23.621],[120.713,23.628],[120.719,23.63],[120.723,23.623],[120.731,23.618],[120.731,23.611],[120.747,23.611],[120.753,23.615],[120.764,23.612],[120.778,23.602],[120.791,23.601],[120.795,23.597],[120.803,23.597],[120.814,23.601],[120.818,23.599],[120.817,23.595],[120.826,23.586],[120.82,23.578],[120.821,23.562],[120.809,23.546],[120.809,23.536],[120.82,23.521],[120.823,23.499],[120.833,23.475],[120.839,23.471],[120.863,23.474],[120.88,23.468],[120.887,23.476],[120.91,23.476],[120.931,23.471],[120.937,23.473],[120.948,23.467],[120.958,23.469]]]}},{"type":"Feature","properties":{"iso":"TW-NWT","name_zh":"新北市","name_en":"New Taipei","label_point":[25.0213,121.5742]},"geometry":{"type":"Polygon","coordinates":[[[121.966,24.983],[121.975,24.988],[121.977,24.992],[121.984,24.992],[121.996,25.002],[122.005,25.003],[122.005,25.015],[122.002,25.014],[121.998,25.019],[121.991,25.012],[121.99,25.021],[121.976,25.026],[121.947,25.02],[121.933,25.033],[121.928,25.042],[121.934,25.048],[121.928,25.049],[121.932,25.063],[121.915,25.076],[121.914,25.085],[121.919,25.102],[121.924,25.104],[121.922,25.114],[121.913,25.114],[121.923,25.124],[121.924,25.129],[121.898,25.119],[121.874,25.125],[121.865,25.122],[121.862,25.126],[121.857,25.124],[121.842,25.129],[121.829,25.128],[121.829,25.124],[121.825,25.121],[121.82,25.123],[121.818,25.128],[121.826,25.136],[121.811,25.133],[121.804,25.136],[121.803,25.122],[121.794,25.126],[121.799,25.119],[121.795,25.113],[121.79,25.113],[121.786,25.118],[121.774,25.12],[121.767,25.113],[121.75,25.11],[121.753,25.107],[121.756,25.108],[121.757,25.102],[121.76,25.101],[121.761,25.079],[121.77,25.078],[121.776,25.071],[121.764,25.058],[121.757,25.059],[121.746,25.053],[121.73,25.053],[121.714,25.067],[121.7,25.067],[121.68,25.077],[121.681,25.088],[121.674,25.083],[121.656,25.094],[121.649,25.102],[121.652,25.105],[121.646,25.114],[121.643,25.127],[121.633,25.131],[121.627,25.14],[121.64,25.146],[121.65,25.145],[121.658,25.152],[121.678,25.156],[121.692,25.166],[121.699,25.167],[121.703,25.179],[121.697,25.183],[121.692,25.181],[121.686,25.19],[121.695,25.203],[121.692,25.204],[121.693,25.207],[121.702,25.217],[121.692,25.208],[121.686,25.208],[121.688,25.21],[121.679,25.203],[121.678,25.206],[121.672,25.202],[121.664,25.209],[121.662,25.208],[121.664,25.21],[121.661,25.209],[121.653,25.216],[121.65,25.224],[121.654,25.229],[121.652,25.233],[121.644,25.231],[121.634,25.239],[121.634,25.259],[121.63,25.266],[121.619,25.277],[121.578,25.298],[121.565,25.296],[121.566,25.292],[121.551,25.291],[121.541,25.294],[121.537,25.3],[121.533,25.295],[121.535,25.291],[121.53,25.287],[121.516,25.285],[121.511,25.291],[121.51,25.282],[121.483,25.271],[121.474,25.259],[121.476,25.257],[121.473,25.258],[121.473,25.254],[121.467,25.25],[121.452,25.249],[121.445,25.235],[121.445,25.23],[121.441,25.227],[121.439,25.218],[121.42,25.202],[121.416,25.195],[121.42,25.192],[121.409,25.188],[121.39,25.169],[121.373,25.172],[121.365,25.168],[121.37,25.16],[121.358,25.155],[121.356,25.159],[121.347,25.155],[121.356,25.159],[121.358,25.155],[121.37,25.16],[121.372,25.156],[121.393,25.166],[121.398,25.162],[121.394,25.158],[121.395,25.156],[121.388,25.153],[121.387,25.158],[121.383,25.155],[121.389,25.15],[121.388,25.146],[121.368,25.138],[121.366,25.14],[121.382,25.147],[121.379,25.152],[121.365,25.143],[121.361,25.151],[121.368,25.137],[121.36,25.134],[121.33,25.124],[121.304,25.126],[121.284,25.117],[121.283,25.11],[121.29,25.107],[121.292,25.103],[121.299,25.104],[121.303,25.097],[121.325,25.093],[121.339,25.084],[121.349,25.082],[121.343,25.08],[121.348,25.079],[121.344,25.078],[121.346,25.076],[121.34,25.077],[121.342,25.073],[121.35,25.077],[121.35,25.074],[121.353,25.073],[121.346,25.07],[121.354,25.069],[121.355,25.065],[121.377,25.066],[121.388,25.063],[121.391,25.061],[121.388,25.06],[121.389,25.057],[121.386,25.058],[121.387,25.055],[121.384,25.052],[121.393,25.055],[121.391,25.054],[121.401,25.051],[121.398,25.048],[121.394,25.049],[121.403,25.046],[121.398,25.044],[121.401,25.043],[121.391,25.042],[121.401,25.038],[121.398,25.03],[121.412,25.019],[121.393,25.016],[121.391,25.012],[121.399,25.007],[121.403,24.999],[121.394,24.993],[121.384,24.996],[121.385,24.986],[121.369,24.977],[121.364,24.98],[121.354,24.978],[121.352,24.981],[121.347,24.979],[121.343,24.982],[121.327,24.978],[121.329,24.976],[121.323,24.973],[121.328,24.972],[121.328,24.949],[121.332,24.946],[121.316,24.938],[121.323,24.931],[121.322,24.928],[121.34,24.929],[121.325,24.923],[121.318,24.916],[121.326,24.909],[121.32,24.9],[121.327,24.896],[121.333,24.899],[121.334,24.892],[121.342,24.893],[121.341,24.888],[121.345,24.886],[121.346,24.88],[121.354,24.873],[121.345,24.867],[121.358,24.853],[121.355,24.853],[121.353,24.849],[121.349,24.848],[121.348,24.851],[121.337,24.848],[121.336,24.844],[121.347,24.846],[121.355,24.844],[121.358,24.84],[121.374,24.833],[121.383,24.837],[121.388,24.842],[121.403,24.844],[121.416,24.836],[121.414,24.832],[121.417,24.825],[121.424,24.825],[121.43,24.815],[121.437,24.812],[121.438,24.796],[121.445,24.79],[121.45,24.791],[121.45,24.786],[121.426,24.768],[121.423,24.762],[121.428,24.753],[121.434,24.73],[121.441,24.726],[121.45,24.706],[121.474,24.696],[121.474,24.685],[121.48,24.674],[121.493,24.673],[121.512,24.684],[121.524,24.683],[121.528,24.689],[121.537,24.688],[121.538,24.7],[121.543,24.706],[121.551,24.706],[121.556,24.711],[121.57,24.714],[121.575,24.71],[121.578,24.722],[121.587,24.72],[121.597,24.728],[121.594,24.73],[121.595,24.74],[121.592,24.745],[121.596,24.748],[121.589,24.755],[121.598,24.772],[121.592,24.788],[121.606,24.789],[121.61,24.794],[121.621,24.792],[121.626,24.795],[121.626,24.809],[121.645,24.809],[121.647,24.814],[121.661,24.811],[121.669,24.818],[121.674,24.814],[121.681,24.818],[121.688,24.816],[121.69,24.822],[121.688,24.825],[121.696,24.83],[121.696,24.835],[121.702,24.834],[121.714,24.842],[121.73,24.855],[121.745,24.853],[121.761,24.857],[121.768,24.866],[121.776,24.865],[121.777,24.871],[121.785,24.874],[121.782,24.889],[121.793,24.896],[121.792,24.9],[121.805,24.901],[121.812,24.907],[121.819,24.903],[121.836,24.908],[121.854,24.926],[121.839,24.945],[121.841,24.954],[121.847,24.96],[121.861,24.964],[121.872,24.961],[121.889,24.963],[121.897,24.967],[121.903,24.974],[121.91,24.975],[121.915,24.979],[121.934,24.981],[121.945,24.988],[121.961,24.988],[121.966,24.983]],[[121.457,25.109],[121.462,25.116],[121.459,25.123],[121.465,25.124],[121.464,25.131],[121.484,25.151],[121.487,25.151],[121.503,25.173],[121.52,25.17],[121.522,25.179],[121.525,25.183],[121.541,25.187],[121.545,25.196],[121.552,25.197],[121.552,25.204],[121.555,25.208],[121.563,25.209],[121.564,25.196],[121.572,25.194],[121.584,25.195],[121.581,25.182],[121.583,25.177],[121.577,25.167],[121.59,25.164],[121.592,25.156],[121.589,25.152],[121.604,25.136],[121.605,25.131],[121.608,25.131],[121.595,25.114],[121.597,25.11],[121.615,25.104],[121.626,25.097],[121.628,25.084],[121.616,25.064],[121.623,25.057],[121.616,25.051],[121.618,25.046],[121.625,25.038],[121.647,25.028],[121.666,25.03],[121.665,25.025],[121.647,25.022],[121.632,25.026],[121.629,25.02],[121.623,25.017],[121.604,25.019],[121.602,25.015],[121.598,25.015],[121.596,25.004],[121.601,25.001],[121.598,24.995],[121.602,24.989],[121.599,24.979],[121.62,24.97],[121.618,24.967],[121.597,24.96],[121.593,24.964],[121.586,24.963],[121.579,24.967],[121.573,24.964],[121.56,24.965],[121.552,24.987],[121.545,24.984],[121.544,24.988],[121.537,24.988],[121.535,24.995],[121.532,24.99],[121.531,25.0],[121.534,25.003],[121.532,25.008],[121.519,25.02],[121.511,25.022],[121.496,25.009],[121.49,25.011],[121.483,25.036],[121.488,25.042],[121.496,25.043],[121.505,25.05],[121.506,25.076],[121.5,25.088],[121.487,25.098],[121.464,25.102],[121.457,25.109]]]}},{"type":"Feature","properties":{"iso":"TW-PEN","name_zh":"澎湖縣","name_en":"Penghu","label_point":[23.5583,119.5999]},"geometry":{"type":"MultiPolygon","coordinates":[[[[119.411,23.215],[119.421,23.203],[119.421,23.199],[119.416,23.194],[119.422,23.196],[119.422,23.193],[119.418,23.193],[119.43,23.187],[119.43,23.197],[119.436,23.202],[119.443,23.2],[119.443,23.213],[119.448,23.22],[119.44,23.221],[119.411,23.215]]],[[[119.665,23.251],[119.672,23.244],[119.679,23.262],[119.667,23.261],[119.668,23.255],[119.665,23.251]]],[[[119.519,23.364],[119.525,23.358],[119.526,23.363],[119.533,23.367],[119.544,23.365],[119.541,23.367],[119.541,23.373],[119.537,23.374],[119.527,23.372],[119.527,23.368],[119.519,23.367],[119.519,23.364]]],[[[119.487,23.357],[119.491,23.353],[119.503,23.356],[119.513,23.354],[119.508,23.359],[119.508,23.365],[119.516,23.368],[119.515,23.374],[119.513,23.371],[119.508,23.372],[119.511,23.375],[119.506,23.382],[119.507,23.391],[119.504,23.394],[119.501,23.39],[119.497,23.39],[119.494,23.397],[119.49,23.394],[119.495,23.388],[119.492,23.379],[119.495,23.366],[119.487,23.357]]],[[[119.315,23.403],[119.316,23.398],[119.318,23.398],[119.328,23.401],[119.33,23.406],[119.32,23.412],[119.315,23.403]]],[[[119.509,23.486],[119.512,23.483],[119.529,23.487],[119.544,23.494],[119.537,23.498],[119.529,23.496],[119.515,23.486],[119.51,23.491],[119.509,23.486]]],[[[119.467,23.562],[119.476,23.56],[119.481,23.562],[119.479,23.564],[119.49,23.563],[119.497,23.568],[119.5,23.565],[119.516,23.565],[119.518,23.567],[119.513,23.57],[119.512,23.579],[119.516,23.585],[119.512,23.592],[119.52,23.594],[119.523,23.601],[119.518,23.629],[119.536,23.633],[119.54,23.632],[119.537,23.634],[119.54,23.633],[119.544,23.641],[119.534,23.639],[119.525,23.644],[119.521,23.643],[119.516,23.65],[119.512,23.648],[119.502,23.631],[119.504,23.624],[119.499,23.62],[119.509,23.613],[119.503,23.603],[119.504,23.597],[119.498,23.595],[119.495,23.6],[119.492,23.595],[119.504,23.589],[119.503,23.579],[119.493,23.57],[119.482,23.575],[119.467,23.562]]],[[[119.54,23.542],[119.544,23.537],[119.55,23.539],[119.549,23.533],[119.553,23.532],[119.557,23.524],[119.563,23.526],[119.57,23.524],[119.574,23.518],[119.57,23.513],[119.571,23.509],[119.584,23.509],[119.59,23.513],[119.597,23.511],[119.598,23.514],[119.598,23.51],[119.606,23.508],[119.608,23.51],[119.605,23.517],[119.611,23.523],[119.606,23.523],[119.606,23.529],[119.612,23.533],[119.613,23.538],[119.621,23.538],[119.621,23.542],[119.629,23.547],[119.634,23.547],[119.637,23.552],[119.641,23.552],[119.639,23.555],[119.644,23.559],[119.667,23.561],[119.67,23.556],[119.674,23.558],[119.678,23.551],[119.695,23.555],[119.693,23.56],[119.683,23.566],[119.68,23.574],[119.682,23.584],[119.671,23.602],[119.668,23.601],[119.669,23.596],[119.666,23.591],[119.661,23.591],[119.656,23.6],[119.657,23.607],[119.651,23.61],[119.646,23.607],[119.65,23.606],[119.646,23.597],[119.643,23.596],[119.643,23.588],[119.641,23.586],[119.638,23.591],[119.641,23.598],[119.637,23.599],[119.633,23.596],[119.631,23.583],[119.62,23.571],[119.626,23.583],[119.625,23.592],[119.628,23.595],[119.625,23.6],[119.632,23.604],[119.625,23.609],[119.62,23.607],[119.621,23.602],[119.608,23.604],[119.603,23.601],[119.607,23.593],[119.606,23.585],[119.598,23.583],[119.598,23.578],[119.602,23.577],[119.597,23.574],[119.597,23.569],[119.594,23.571],[119.594,23.575],[119.586,23.573],[119.589,23.58],[119.583,23.58],[119.586,23.58],[119.583,23.583],[119.586,23.586],[119.584,23.594],[119.575,23.585],[119.562,23.585],[119.567,23.575],[119.56,23.57],[119.563,23.569],[119.556,23.563],[119.558,23.561],[119.569,23.564],[119.568,23.562],[119.574,23.568],[119.58,23.563],[119.576,23.563],[119.577,23.56],[119.572,23.563],[119.577,23.559],[119.572,23.559],[119.576,23.555],[119.562,23.557],[119.562,23.552],[119.566,23.553],[119.562,23.549],[119.569,23.551],[119.569,23.548],[119.572,23.549],[119.573,23.546],[119.587,23.552],[119.591,23.552],[119.591,23.55],[119.591,23.553],[119.595,23.55],[119.594,23.548],[119.599,23.55],[119.602,23.547],[119.6,23.543],[119.603,23.541],[119.595,23.538],[119.596,23.532],[119.599,23.53],[119.596,23.527],[119.589,23.532],[119.586,23.53],[119.58,23.532],[119.579,23.523],[119.574,23.52],[119.571,23.526],[119.574,23.528],[119.566,23.534],[119.565,23.53],[119.561,23.531],[119.561,23.527],[119.557,23.527],[119.554,23.531],[119.556,23.537],[119.551,23.541],[119.552,23.549],[119.548,23.55],[119.549,23.554],[119.545,23.546],[119.542,23.548],[119.54,23.542]]],[[[119.597,23.617],[119.604,23.609],[119.614,23.614],[119.613,23.62],[119.607,23.622],[119.603,23.617],[119.597,23.617]]],[[[119.549,23.662],[119.55,23.658],[119.552,23.659],[119.563,23.65],[119.568,23.66],[119.581,23.662],[119.58,23.656],[119.595,23.636],[119.587,23.622],[119.596,23.624],[119.6,23.62],[119.604,23.625],[119.603,23.629],[119.609,23.633],[119.608,23.638],[119.602,23.634],[119.598,23.641],[119.602,23.643],[119.601,23.648],[119.61,23.648],[119.612,23.653],[119.607,23.657],[119.608,23.663],[119.605,23.666],[119.603,23.664],[119.606,23.668],[119.599,23.675],[119.591,23.672],[119.582,23.678],[119.568,23.672],[119.57,23.67],[119.561,23.671],[119.56,23.675],[119.559,23.67],[119.554,23.669],[119.549,23.662]]],[[[119.595,23.739],[119.6,23.735],[119.603,23.727],[119.606,23.737],[119.615,23.737],[119.61,23.739],[119.612,23.742],[119.616,23.738],[119.616,23.742],[119.622,23.743],[119.622,23.747],[119.61,23.756],[119.604,23.746],[119.595,23.739]]]]}},{"type":"Feature","properties":{"iso":"TW-PIF","name_zh":"屏東縣","name_en":"Pingtung","label_point":[22.3942,120.7226]},"geometry":{"type":"MultiPolygon","coordinates":[[[[120.353,22.327],[120.358,22.322],[120.365,22.324],[120.377,22.334],[120.373,22.334],[120.387,22.342],[120.389,22.35],[120.379,22.356],[120.367,22.351],[120.361,22.346],[120.363,22.34],[120.353,22.327]]],[[[120.865,22.843],[120.853,22.858],[120.847,22.852],[120.837,22.864],[120.825,22.866],[120.801,22.851],[120.793,22.852],[120.793,22.841],[120.779,22.835],[120.764,22.849],[120.762,22.857],[120.755,22.865],[120.749,22.866],[120.742,22.874],[120.731,22.876],[120.725,22.881],[120.704,22.881],[120.691,22.865],[120.679,22.863],[120.677,22.857],[120.672,22.856],[120.661,22.86],[120.658,22.88],[120.655,22.882],[120.649,22.877],[120.645,22.885],[120.621,22.876],[120.615,22.877],[120.605,22.873],[120.553,22.828],[120.536,22.829],[120.531,22.833],[120.51,22.829],[120.498,22.832],[120.493,22.837],[120.474,22.837],[120.469,22.831],[120.464,22.8],[120.454,22.771],[120.456,22.722],[120.453,22.704],[120.448,22.689],[120.44,22.678],[120.436,22.662],[120.434,22.618],[120.437,22.607],[120.446,22.599],[120.447,22.586],[120.442,22.56],[120.437,22.548],[120.431,22.544],[120.423,22.519],[120.426,22.498],[120.424,22.477],[120.43,22.477],[120.434,22.47],[120.438,22.474],[120.439,22.473],[120.435,22.468],[120.432,22.469],[120.435,22.468],[120.441,22.472],[120.438,22.475],[120.441,22.476],[120.447,22.469],[120.437,22.466],[120.443,22.467],[120.446,22.464],[120.441,22.466],[120.435,22.464],[120.453,22.447],[120.546,22.398],[120.587,22.37],[120.6,22.354],[120.607,22.34],[120.63,22.319],[120.642,22.303],[120.643,22.291],[120.652,22.267],[120.649,22.255],[120.672,22.234],[120.686,22.208],[120.684,22.196],[120.693,22.178],[120.696,22.155],[120.7,22.149],[120.698,22.14],[120.703,22.138],[120.703,22.131],[120.71,22.124],[120.716,22.105],[120.716,22.092],[120.701,22.083],[120.707,22.069],[120.706,22.058],[120.697,22.055],[120.695,22.047],[120.698,22.042],[120.688,22.034],[120.686,22.025],[120.696,22.002],[120.707,21.996],[120.708,21.988],[120.714,21.981],[120.716,21.973],[120.713,21.965],[120.711,21.935],[120.719,21.933],[120.719,21.928],[120.728,21.919],[120.74,21.92],[120.739,21.927],[120.746,21.931],[120.745,21.934],[120.747,21.932],[120.745,21.943],[120.749,21.951],[120.755,21.954],[120.755,21.957],[120.766,21.959],[120.771,21.952],[120.778,21.951],[120.783,21.944],[120.796,21.944],[120.8,21.937],[120.805,21.941],[120.81,21.934],[120.822,21.935],[120.836,21.917],[120.847,21.913],[120.848,21.901],[120.852,21.898],[120.86,21.897],[120.866,21.901],[120.861,21.907],[120.861,21.917],[120.844,21.941],[120.84,21.958],[120.846,21.974],[120.844,21.981],[120.847,21.988],[120.874,21.999],[120.877,22.012],[120.886,22.017],[120.888,22.026],[120.9,22.034],[120.893,22.048],[120.89,22.08],[120.89,22.087],[120.898,22.093],[120.9,22.105],[120.891,22.11],[120.886,22.13],[120.897,22.144],[120.891,22.148],[120.894,22.155],[120.891,22.163],[120.893,22.174],[120.89,22.194],[120.896,22.204],[120.893,22.22],[120.899,22.234],[120.896,22.246],[120.884,22.241],[120.881,22.235],[120.862,22.231],[120.864,22.234],[120.859,22.241],[120.835,22.245],[120.826,22.257],[120.815,22.263],[120.798,22.258],[120.798,22.276],[120.807,22.277],[120.806,22.284],[120.793,22.286],[120.79,22.293],[120.778,22.297],[120.777,22.303],[120.778,22.309],[120.787,22.309],[120.797,22.317],[120.793,22.336],[120.785,22.346],[120.775,22.349],[120.767,22.348],[120.763,22.359],[120.753,22.36],[120.743,22.367],[120.749,22.373],[120.751,22.384],[120.757,22.388],[120.752,22.392],[120.758,22.398],[120.753,22.405],[120.765,22.409],[120.771,22.407],[120.78,22.409],[120.79,22.418],[120.775,22.443],[120.776,22.45],[120.751,22.459],[120.755,22.471],[120.751,22.479],[120.758,22.482],[120.764,22.495],[120.754,22.511],[120.75,22.534],[120.739,22.553],[120.742,22.569],[120.749,22.572],[120.746,22.59],[120.755,22.601],[120.754,22.616],[120.761,22.63],[120.786,22.661],[120.786,22.672],[120.792,22.679],[120.787,22.693],[120.809,22.688],[120.812,22.692],[120.819,22.691],[120.82,22.696],[120.837,22.697],[120.849,22.717],[120.855,22.718],[120.858,22.714],[120.861,22.717],[120.883,22.717],[120.891,22.729],[120.895,22.739],[120.895,22.762],[120.892,22.764],[120.9,22.769],[120.904,22.776],[120.903,22.8],[120.891,22.812],[120.869,22.817],[120.862,22.826],[120.865,22.836],[120.865,22.843]]]]}},{"type":"Feature","properties":{"iso":"TW-TAO","name_zh":"桃園市","name_en":"Taoyuan","label_point":[24.8935,121.2951]},"geometry":{"type":"Polygon","coordinates":[[[121.403,24.592],[121.413,24.604],[121.419,24.601],[121.428,24.606],[121.436,24.627],[121.445,24.637],[121.445,24.643],[121.451,24.651],[121.448,24.659],[121.457,24.671],[121.48,24.674],[121.474,24.685],[121.474,24.696],[121.45,24.706],[121.441,24.726],[121.434,24.73],[121.428,24.753],[121.423,24.762],[121.426,24.768],[121.446,24.782],[121.45,24.791],[121.445,24.79],[121.438,24.796],[121.437,24.812],[121.43,24.815],[121.424,24.825],[121.417,24.825],[121.414,24.832],[121.416,24.836],[121.403,24.844],[121.388,24.842],[121.383,24.837],[121.374,24.833],[121.358,24.84],[121.355,24.844],[121.347,24.846],[121.336,24.844],[121.337,24.848],[121.348,24.851],[121.349,24.848],[121.353,24.849],[121.355,24.853],[121.358,24.853],[121.345,24.867],[121.354,24.873],[121.346,24.88],[121.345,24.886],[121.341,24.888],[121.342,24.893],[121.334,24.892],[121.333,24.899],[121.327,24.896],[121.32,24.9],[121.326,24.909],[121.318,24.916],[121.325,24.923],[121.34,24.929],[121.322,24.928],[121.323,24.931],[121.316,24.938],[121.332,24.946],[121.328,24.949],[121.328,24.972],[121.323,24.973],[121.329,24.976],[121.327,24.978],[121.343,24.982],[121.347,24.979],[121.352,24.981],[121.354,24.978],[121.364,24.98],[121.369,24.977],[121.385,24.986],[121.384,24.996],[121.394,24.993],[121.403,24.999],[121.399,25.007],[121.391,25.012],[121.393,25.016],[121.412,25.019],[121.398,25.03],[121.401,25.038],[121.391,25.042],[121.401,25.043],[121.398,25.044],[121.403,25.046],[121.394,25.049],[121.398,25.048],[121.401,25.051],[121.391,25.054],[121.393,25.055],[121.384,25.052],[121.387,25.055],[121.386,25.058],[121.389,25.057],[121.388,25.06],[121.391,25.061],[121.388,25.063],[121.377,25.066],[121.355,25.065],[121.354,25.069],[121.346,25.07],[121.353,25.073],[121.35,25.074],[121.35,25.077],[121.348,25.074],[121.341,25.074],[121.34,25.077],[121.346,25.076],[121.344,25.078],[121.348,25.079],[121.343,25.08],[121.349,25.082],[121.339,25.084],[121.325,25.093],[121.303,25.097],[121.299,25.104],[121.292,25.103],[121.29,25.107],[121.283,25.11],[121.284,25.117],[121.26,25.122],[121.242,25.12],[121.239,25.115],[121.212,25.109],[121.172,25.085],[121.103,25.066],[121.074,25.046],[121.056,25.042],[121.047,25.035],[121.038,25.027],[121.016,24.991],[121.009,24.99],[121.016,24.987],[121.014,24.972],[120.999,24.954],[120.991,24.949],[120.986,24.94],[120.993,24.935],[120.994,24.939],[121.003,24.94],[121.008,24.946],[121.019,24.94],[121.038,24.946],[121.041,24.943],[121.046,24.944],[121.049,24.939],[121.058,24.937],[121.058,24.93],[121.061,24.924],[121.058,24.905],[121.069,24.903],[121.071,24.9],[121.083,24.899],[121.091,24.893],[121.109,24.898],[121.111,24.891],[121.108,24.886],[121.122,24.88],[121.136,24.878],[121.139,24.882],[121.156,24.881],[121.161,24.86],[121.15,24.844],[121.154,24.844],[121.16,24.837],[121.176,24.832],[121.174,24.828],[121.187,24.823],[121.199,24.815],[121.203,24.817],[121.205,24.807],[121.219,24.812],[121.222,24.799],[121.244,24.809],[121.247,24.804],[121.248,24.797],[121.26,24.793],[121.26,24.782],[121.271,24.778],[121.271,24.775],[121.277,24.771],[121.301,24.764],[121.308,24.755],[121.298,24.733],[121.308,24.72],[121.3,24.695],[121.304,24.693],[121.316,24.698],[121.324,24.695],[121.339,24.679],[121.339,24.667],[121.344,24.669],[121.345,24.667],[121.353,24.668],[121.352,24.643],[121.358,24.634],[121.366,24.632],[121.363,24.621],[121.359,24.617],[121.367,24.599],[121.387,24.587],[121.403,24.592]]]}},{"type":"Feature","properties":{"iso":"TW-TNN","name_zh":"臺南市","name_en":"Tainan","label_point":[23.1696,120.3092]},"geometry":{"type":"MultiPolygon","coordinates":[[[[120.156,22.973],[120.163,22.971],[120.166,22.974],[120.156,22.988],[120.152,22.988],[120.149,22.984],[120.155,22.98],[120.156,22.973]]],[[[120.125,23.335],[120.122,23.329],[120.131,23.324],[120.131,23.321],[120.117,23.326],[120.114,23.314],[120.106,23.301],[120.109,23.298],[120.098,23.293],[120.095,23.258],[120.098,23.271],[120.106,23.269],[120.119,23.277],[120.116,23.272],[120.124,23.27],[120.117,23.271],[120.108,23.267],[120.105,23.26],[120.109,23.256],[120.108,23.252],[120.1,23.246],[120.094,23.235],[120.096,23.229],[120.106,23.228],[120.106,23.224],[120.097,23.22],[120.095,23.225],[120.095,23.219],[120.092,23.218],[120.091,23.223],[120.085,23.226],[120.087,23.234],[120.083,23.234],[120.083,23.221],[120.074,23.212],[120.08,23.208],[120.08,23.203],[120.069,23.185],[120.069,23.166],[120.064,23.149],[120.036,23.104],[120.034,23.063],[120.038,23.056],[120.037,23.066],[120.049,23.058],[120.054,23.05],[120.065,23.048],[120.068,23.045],[120.067,23.042],[120.107,23.021],[120.134,22.998],[120.139,22.998],[120.14,22.993],[120.147,22.988],[120.15,22.989],[120.148,22.993],[120.152,22.991],[120.155,23.001],[120.159,23.001],[120.155,22.995],[120.163,22.998],[120.156,22.993],[120.159,22.984],[120.163,22.984],[120.166,22.979],[120.177,22.979],[120.171,22.97],[120.173,22.965],[120.167,22.971],[120.161,22.967],[120.174,22.941],[120.175,22.912],[120.192,22.921],[120.218,22.91],[120.23,22.917],[120.233,22.906],[120.243,22.903],[120.255,22.894],[120.259,22.895],[120.257,22.899],[120.259,22.902],[120.273,22.895],[120.28,22.896],[120.278,22.904],[120.285,22.905],[120.314,22.9],[120.319,22.895],[120.325,22.9],[120.332,22.889],[120.349,22.891],[120.352,22.887],[120.355,22.89],[120.353,22.892],[120.361,22.898],[120.359,22.901],[120.372,22.907],[120.371,22.912],[120.382,22.921],[120.387,22.918],[120.399,22.922],[120.409,22.912],[120.416,22.916],[120.443,22.977],[120.445,22.98],[120.453,22.978],[120.455,22.991],[120.461,22.991],[120.46,23.003],[120.48,23.003],[120.484,23.017],[120.504,23.029],[120.53,23.056],[120.555,23.069],[120.567,23.082],[120.588,23.114],[120.589,23.124],[120.601,23.144],[120.612,23.152],[120.611,23.156],[120.617,23.163],[120.621,23.163],[120.631,23.17],[120.629,23.174],[120.636,23.175],[120.641,23.183],[120.637,23.19],[120.644,23.204],[120.651,23.208],[120.656,23.218],[120.653,23.225],[120.634,23.229],[120.61,23.223],[120.597,23.229],[120.592,23.24],[120.587,23.224],[120.578,23.215],[120.565,23.221],[120.561,23.217],[120.555,23.217],[120.541,23.228],[120.526,23.232],[120.519,23.239],[120.528,23.245],[120.532,23.255],[120.52,23.272],[120.522,23.288],[120.526,23.295],[120.523,23.312],[120.54,23.328],[120.534,23.336],[120.505,23.345],[120.505,23.355],[120.508,23.353],[120.512,23.356],[120.511,23.364],[120.505,23.369],[120.499,23.368],[120.488,23.373],[120.484,23.37],[120.484,23.379],[120.499,23.387],[120.495,23.394],[120.49,23.396],[120.479,23.388],[120.473,23.398],[120.44,23.414],[120.432,23.411],[120.43,23.406],[120.422,23.407],[120.42,23.403],[120.416,23.41],[120.41,23.41],[120.408,23.413],[120.381,23.403],[120.349,23.401],[120.334,23.386],[120.323,23.384],[120.315,23.388],[120.311,23.386],[120.311,23.375],[120.293,23.375],[120.286,23.367],[120.284,23.36],[120.286,23.35],[120.278,23.348],[120.273,23.353],[120.266,23.353],[120.261,23.344],[120.267,23.345],[120.267,23.341],[120.256,23.331],[120.238,23.327],[120.223,23.299],[120.212,23.292],[120.204,23.292],[120.188,23.301],[120.186,23.297],[120.189,23.29],[120.179,23.292],[120.169,23.307],[120.15,23.313],[120.148,23.321],[120.125,23.335]]]]}},{"type":"Feature","properties":{"iso":"TW-TPE","name_zh":"臺北市","name_en":"Taipei","label_point":[25.0727,121.5612]},"geometry":{"type":"Polygon","coordinates":[[[121.457,25.109],[121.464,25.102],[121.487,25.098],[121.5,25.088],[121.506,25.076],[121.505,25.05],[121.496,25.043],[121.488,25.042],[121.483,25.036],[121.49,25.011],[121.496,25.009],[121.511,25.022],[121.519,25.02],[121.532,25.008],[121.534,25.003],[121.531,25.0],[121.532,24.99],[121.535,24.995],[121.537,24.988],[121.544,24.988],[121.545,24.984],[121.552,24.987],[121.56,24.965],[121.573,24.964],[121.579,24.967],[121.586,24.963],[121.593,24.964],[121.597,24.96],[121.618,24.967],[121.62,24.97],[121.599,24.979],[121.602,24.989],[121.598,24.995],[121.601,25.001],[121.596,25.004],[121.598,25.015],[121.602,25.015],[121.604,25.019],[121.623,25.017],[121.629,25.02],[121.632,25.026],[121.647,25.022],[121.665,25.025],[121.666,25.03],[121.647,25.028],[121.625,25.038],[121.618,25.046],[121.616,25.051],[121.623,25.057],[121.616,25.064],[121.628,25.084],[121.626,25.097],[121.615,25.104],[121.597,25.11],[121.595,25.114],[121.608,25.131],[121.605,25.131],[121.604,25.136],[121.589,25.152],[121.592,25.156],[121.59,25.164],[121.577,25.167],[121.583,25.177],[121.581,25.182],[121.584,25.195],[121.572,25.194],[121.564,25.196],[121.563,25.209],[121.555,25.208],[121.552,25.204],[121.552,25.197],[121.545,25.196],[121.541,25.187],[121.525,25.183],[121.522,25.179],[121.52,25.17],[121.503,25.173],[121.487,25.151],[121.484,25.151],[121.464,25.131],[121.465,25.124],[121.459,25.123],[121.462,25.116],[121.457,25.109]]]}},{"type":"Feature","properties":{"iso":"TW-TTT","name_zh":"臺東縣","name_en":"Taitung","label_point":[22.907,121.0713]},"geometry":{"type":"MultiPolygon","coordinates":[[[[121.499,22.081],[121.508,22.073],[121.511,22.066],[121.507,22.058],[121.511,22.052],[121.509,22.046],[121.516,22.047],[121.536,22.025],[121.549,22.026],[121.558,22.023],[121.57,22.009],[121.57,22.003],[121.581,22.005],[121.586,22.001],[121.593,22.003],[121.601,22.018],[121.6,22.023],[121.568,22.04],[121.564,22.05],[121.566,22.058],[121.576,22.061],[121.569,22.067],[121.568,22.075],[121.571,22.081],[121.568,22.087],[121.56,22.08],[121.557,22.084],[121.548,22.083],[121.532,22.081],[121.531,22.079],[121.526,22.083],[121.513,22.081],[121.505,22.086],[121.499,22.081]]],[[[121.463,22.674],[121.475,22.659],[121.473,22.646],[121.488,22.643],[121.496,22.633],[121.507,22.633],[121.508,22.635],[121.499,22.646],[121.508,22.655],[121.506,22.659],[121.513,22.667],[121.509,22.679],[121.494,22.675],[121.492,22.68],[121.48,22.676],[121.465,22.679],[121.463,22.674]]],[[[120.896,22.246],[120.891,22.282],[120.894,22.334],[120.9,22.338],[120.903,22.354],[120.911,22.36],[120.915,22.386],[120.947,22.456],[120.959,22.506],[120.969,22.526],[120.978,22.556],[120.985,22.569],[121.01,22.592],[121.012,22.619],[121.023,22.652],[121.037,22.669],[121.063,22.682],[121.083,22.7],[121.124,22.717],[121.155,22.746],[121.177,22.762],[121.182,22.786],[121.188,22.792],[121.19,22.789],[121.194,22.791],[121.2,22.797],[121.192,22.826],[121.186,22.832],[121.19,22.849],[121.208,22.865],[121.226,22.868],[121.234,22.865],[121.239,22.878],[121.251,22.886],[121.261,22.907],[121.268,22.911],[121.275,22.928],[121.278,22.93],[121.283,22.949],[121.295,22.956],[121.292,22.952],[121.313,22.975],[121.322,22.994],[121.321,23.003],[121.328,23.011],[121.328,23.016],[121.336,23.02],[121.335,23.025],[121.339,23.028],[121.338,23.036],[121.346,23.051],[121.348,23.068],[121.357,23.074],[121.354,23.079],[121.361,23.091],[121.366,23.097],[121.383,23.096],[121.396,23.117],[121.402,23.114],[121.412,23.122],[121.402,23.129],[121.399,23.137],[121.399,23.149],[121.406,23.157],[121.407,23.166],[121.402,23.173],[121.405,23.18],[121.402,23.179],[121.397,23.187],[121.396,23.205],[121.42,23.226],[121.418,23.228],[121.416,23.227],[121.414,23.234],[121.422,23.262],[121.427,23.267],[121.43,23.286],[121.448,23.31],[121.461,23.313],[121.466,23.322],[121.475,23.388],[121.496,23.435],[121.491,23.435],[121.483,23.43],[121.473,23.441],[121.463,23.439],[121.462,23.442],[121.447,23.444],[121.44,23.433],[121.433,23.433],[121.42,23.421],[121.41,23.399],[121.4,23.387],[121.404,23.367],[121.423,23.36],[121.422,23.355],[121.41,23.346],[121.402,23.334],[121.4,23.323],[121.39,23.321],[121.388,23.311],[121.378,23.301],[121.378,23.27],[121.372,23.268],[121.371,23.262],[121.359,23.253],[121.361,23.244],[121.353,23.231],[121.357,23.224],[121.346,23.217],[121.347,23.209],[121.335,23.178],[121.33,23.18],[121.323,23.179],[121.322,23.169],[121.319,23.168],[121.317,23.165],[121.322,23.155],[121.327,23.152],[121.32,23.138],[121.322,23.117],[121.316,23.11],[121.292,23.109],[121.272,23.098],[121.264,23.104],[121.267,23.114],[121.258,23.126],[121.249,23.132],[121.245,23.128],[121.239,23.129],[121.231,23.139],[121.212,23.144],[121.213,23.155],[121.199,23.175],[121.198,23.188],[121.189,23.204],[121.176,23.21],[121.161,23.206],[121.155,23.199],[121.147,23.199],[121.139,23.202],[121.129,23.223],[121.109,23.223],[121.093,23.234],[121.079,23.233],[121.062,23.266],[121.062,23.279],[121.056,23.29],[121.039,23.301],[121.024,23.294],[121.01,23.293],[120.987,23.28],[120.972,23.282],[120.947,23.253],[120.941,23.252],[120.938,23.245],[120.931,23.242],[120.926,23.244],[120.916,23.238],[120.912,23.228],[120.912,23.209],[120.907,23.205],[120.906,23.199],[120.912,23.19],[120.911,23.182],[120.899,23.176],[120.895,23.161],[120.876,23.151],[120.886,23.144],[120.888,23.122],[120.885,23.119],[120.889,23.11],[120.886,23.089],[120.869,23.06],[120.88,23.048],[120.88,23.036],[120.862,23.031],[120.861,23.008],[120.858,23.005],[120.851,23.005],[120.852,23.0],[120.849,22.995],[120.842,22.991],[120.841,22.984],[120.832,22.98],[120.829,22.974],[120.83,22.97],[120.821,22.962],[120.825,22.953],[120.822,22.935],[120.833,22.912],[120.829,22.904],[120.833,22.9],[120.84,22.882],[120.86,22.878],[120.865,22.872],[120.864,22.867],[120.859,22.863],[120.87,22.858],[120.862,22.826],[120.872,22.815],[120.891,22.812],[120.903,22.8],[120.904,22.776],[120.9,22.769],[120.892,22.764],[120.895,22.762],[120.895,22.739],[120.883,22.717],[120.861,22.717],[120.858,22.714],[120.855,22.718],[120.849,22.717],[120.837,22.697],[120.82,22.696],[120.819,22.691],[120.812,22.692],[120.809,22.688],[120.787,22.693],[120.792,22.679],[120.786,22.672],[120.786,22.661],[120.761,22.63],[120.754,22.616],[120.755,22.601],[120.746,22.59],[120.749,22.572],[120.742,22.569],[120.739,22.553],[120.75,22.534],[120.754,22.511],[120.764,22.495],[120.758,22.482],[120.751,22.479],[120.755,22.471],[120.751,22.459],[120.776,22.45],[120.775,22.443],[120.79,22.418],[120.78,22.409],[120.771,22.407],[120.765,22.409],[120.753,22.405],[120.758,22.398],[120.752,22.392],[120.757,22.388],[120.751,22.384],[120.749,22.373],[120.743,22.367],[120.753,22.36],[120.763,22.359],[120.767,22.348],[120.775,22.349],[120.785,22.346],[120.793,22.336],[120.797,22.317],[120.787,22.309],[120.778,22.309],[120.777,22.303],[120.778,22.297],[120.79,22.293],[120.793,22.286],[120.806,22.284],[120.807,22.277],[120.798,22.276],[120.798,22.258],[120.815,22.263],[120.826,22.257],[120.835,22.245],[120.859,22.241],[120.864,22.234],[120.862,22.231],[120.866,22.23],[120.881,22.235],[120.884,22.241],[120.896,22.246]]]]}},{"type":"Feature","properties":{"iso":"TW-TXG","name_zh":"臺中市","name_en":"Taichung","label_point":[24.2541,120.9511]},"geometry":{"type":"Polygon","coordinates":[[[121.259,24.438],[121.258,24.425],[121.25,24.425],[121.243,24.419],[121.244,24.406],[121.235,24.397],[121.232,24.384],[121.216,24.379],[121.21,24.396],[121.197,24.397],[121.19,24.382],[121.183,24.381],[121.173,24.373],[121.174,24.369],[121.168,24.361],[121.148,24.358],[121.141,24.36],[121.128,24.342],[121.124,24.341],[121.122,24.331],[121.115,24.329],[121.108,24.331],[121.092,24.319],[121.087,24.318],[121.081,24.324],[121.073,24.323],[121.074,24.319],[121.07,24.316],[121.055,24.31],[121.049,24.296],[121.034,24.298],[121.029,24.305],[121.018,24.311],[121.014,24.32],[121.004,24.333],[120.992,24.33],[120.982,24.336],[120.966,24.333],[120.957,24.339],[120.942,24.339],[120.936,24.343],[120.917,24.335],[120.922,24.304],[120.912,24.294],[120.903,24.292],[120.876,24.295],[120.849,24.289],[120.833,24.291],[120.807,24.316],[120.784,24.318],[120.763,24.326],[120.73,24.352],[120.707,24.358],[120.707,24.362],[120.693,24.367],[120.69,24.374],[120.677,24.384],[120.679,24.387],[120.67,24.392],[120.664,24.402],[120.646,24.412],[120.64,24.428],[120.629,24.438],[120.622,24.44],[120.619,24.432],[120.59,24.401],[120.59,24.394],[120.58,24.372],[120.583,24.369],[120.553,24.336],[120.556,24.335],[120.552,24.334],[120.554,24.331],[120.551,24.331],[120.554,24.33],[120.55,24.33],[120.553,24.325],[120.539,24.323],[120.55,24.316],[120.546,24.306],[120.529,24.314],[120.52,24.313],[120.525,24.308],[120.52,24.3],[120.511,24.293],[120.493,24.297],[120.498,24.295],[120.503,24.286],[120.508,24.283],[120.5,24.268],[120.495,24.27],[120.483,24.238],[120.479,24.238],[120.477,24.234],[120.479,24.238],[120.483,24.237],[120.476,24.224],[120.472,24.222],[120.475,24.23],[120.469,24.215],[120.461,24.217],[120.468,24.213],[120.461,24.216],[120.488,24.205],[120.494,24.214],[120.486,24.197],[120.504,24.191],[120.508,24.187],[120.526,24.149],[120.524,24.14],[120.533,24.126],[120.541,24.124],[120.545,24.116],[120.573,24.108],[120.584,24.11],[120.588,24.106],[120.613,24.103],[120.619,24.075],[120.625,24.069],[120.623,24.052],[120.628,24.038],[120.625,24.03],[120.636,24.031],[120.645,24.026],[120.647,24.034],[120.652,24.028],[120.656,24.031],[120.679,24.014],[120.695,24.007],[120.706,24.005],[120.719,24.01],[120.732,24.009],[120.746,23.999],[120.758,24.006],[120.771,24.009],[120.775,24.019],[120.785,24.024],[120.786,24.029],[120.791,24.031],[120.808,24.065],[120.814,24.07],[120.829,24.072],[120.828,24.094],[120.832,24.099],[120.83,24.103],[120.836,24.117],[120.845,24.125],[120.854,24.125],[120.859,24.116],[120.872,24.117],[120.879,24.109],[120.882,24.101],[120.877,24.091],[120.878,24.085],[120.886,24.095],[120.891,24.098],[120.894,24.107],[120.892,24.116],[120.905,24.114],[120.91,24.109],[120.92,24.107],[120.933,24.113],[120.95,24.128],[120.961,24.12],[120.971,24.12],[120.976,24.117],[120.989,24.119],[120.992,24.125],[121.0,24.128],[121.008,24.147],[121.02,24.159],[121.028,24.16],[121.033,24.149],[121.038,24.158],[121.048,24.16],[121.053,24.155],[121.059,24.163],[121.065,24.163],[121.085,24.176],[121.102,24.196],[121.108,24.198],[121.136,24.196],[121.141,24.2],[121.148,24.213],[121.161,24.215],[121.168,24.225],[121.181,24.212],[121.191,24.216],[121.196,24.223],[121.208,24.222],[121.219,24.229],[121.231,24.226],[121.23,24.224],[121.238,24.22],[121.244,24.222],[121.255,24.243],[121.265,24.246],[121.269,24.238],[121.277,24.236],[121.28,24.23],[121.293,24.229],[121.301,24.237],[121.304,24.234],[121.326,24.233],[121.343,24.224],[121.352,24.235],[121.352,24.244],[121.36,24.244],[121.367,24.253],[121.372,24.255],[121.385,24.256],[121.385,24.265],[121.38,24.28],[121.39,24.29],[121.396,24.289],[121.403,24.297],[121.404,24.309],[121.421,24.308],[121.434,24.323],[121.432,24.331],[121.437,24.343],[121.435,24.348],[121.441,24.359],[121.446,24.36],[121.451,24.365],[121.447,24.376],[121.442,24.374],[121.437,24.383],[121.433,24.384],[121.407,24.378],[121.4,24.38],[121.389,24.376],[121.387,24.37],[121.381,24.368],[121.373,24.368],[121.369,24.373],[121.366,24.379],[121.369,24.383],[121.364,24.39],[121.354,24.394],[121.342,24.393],[121.338,24.39],[121.331,24.398],[121.326,24.4],[121.327,24.433],[121.321,24.44],[121.318,24.441],[121.305,24.433],[121.272,24.43],[121.27,24.427],[121.26,24.429],[121.259,24.438]]]}},{"type":"Feature","properties":{"iso":"TW-YUN","name_zh":"雲林縣","name_en":"Yunlin","label_point":[23.6517,120.4211]},"geometry":{"type":"Polygon","coordinates":[[[120.731,23.611],[120.731,23.618],[120.723,23.623],[120.719,23.63],[120.713,23.628],[120.714,23.621],[120.71,23.619],[120.702,23.617],[120.691,23.62],[120.686,23.618],[120.684,23.611],[120.669,23.609],[120.651,23.616],[120.653,23.63],[120.645,23.631],[120.634,23.619],[120.631,23.622],[120.629,23.635],[120.635,23.643],[120.635,23.652],[120.647,23.673],[120.648,23.683],[120.643,23.7],[120.646,23.703],[120.639,23.711],[120.642,23.722],[120.64,23.73],[120.645,23.737],[120.656,23.735],[120.656,23.755],[120.64,23.786],[120.629,23.79],[120.591,23.791],[120.552,23.801],[120.508,23.801],[120.452,23.817],[120.433,23.83],[120.41,23.826],[120.37,23.829],[120.358,23.823],[120.315,23.82],[120.249,23.832],[120.247,23.827],[120.25,23.829],[120.249,23.821],[120.246,23.824],[120.245,23.821],[120.244,23.824],[120.241,23.822],[120.239,23.828],[120.222,23.833],[120.221,23.827],[120.224,23.826],[120.224,23.819],[120.203,23.822],[120.179,23.806],[120.171,23.807],[120.175,23.805],[120.173,23.801],[120.185,23.801],[120.17,23.771],[120.163,23.773],[120.166,23.765],[120.163,23.759],[120.189,23.762],[120.2,23.76],[120.199,23.757],[120.18,23.755],[120.174,23.737],[120.17,23.707],[120.172,23.703],[120.188,23.703],[120.188,23.7],[120.176,23.699],[120.163,23.684],[120.154,23.664],[120.146,23.658],[120.148,23.656],[120.142,23.641],[120.14,23.621],[120.133,23.62],[120.133,23.616],[120.141,23.612],[120.141,23.598],[120.145,23.597],[120.141,23.584],[120.143,23.568],[120.141,23.563],[120.138,23.562],[120.139,23.549],[120.151,23.536],[120.145,23.526],[120.146,23.521],[120.158,23.516],[120.167,23.517],[120.181,23.51],[120.199,23.513],[120.223,23.504],[120.239,23.508],[120.247,23.515],[120.242,23.54],[120.244,23.544],[120.256,23.546],[120.263,23.534],[120.272,23.531],[120.276,23.544],[120.291,23.551],[120.29,23.562],[120.311,23.564],[120.307,23.575],[120.32,23.572],[120.327,23.574],[120.333,23.579],[120.334,23.593],[120.359,23.595],[120.366,23.602],[120.366,23.608],[120.38,23.61],[120.386,23.621],[120.403,23.627],[120.401,23.632],[120.405,23.634],[120.407,23.625],[120.416,23.621],[120.421,23.625],[120.422,23.62],[120.425,23.618],[120.431,23.619],[120.434,23.623],[120.437,23.622],[120.435,23.626],[120.441,23.626],[120.445,23.631],[120.453,23.631],[120.451,23.627],[120.454,23.626],[120.466,23.63],[120.477,23.63],[120.479,23.633],[120.487,23.631],[120.489,23.636],[120.493,23.633],[120.504,23.635],[120.51,23.619],[120.537,23.595],[120.556,23.593],[120.558,23.589],[120.571,23.588],[120.581,23.582],[120.59,23.586],[120.6,23.583],[120.619,23.584],[120.623,23.59],[120.646,23.594],[120.649,23.592],[120.647,23.588],[120.649,23.584],[120.644,23.575],[120.647,23.577],[120.65,23.573],[120.656,23.572],[120.67,23.579],[120.676,23.571],[120.693,23.577],[120.709,23.576],[120.71,23.571],[120.718,23.569],[120.724,23.572],[120.736,23.57],[120.732,23.577],[120.734,23.584],[120.73,23.594],[120.733,23.597],[120.725,23.604],[120.731,23.611]]]}}]}