{"type": "FeatureCollection", "source": "g0v/twgeojson twCounty2010.topo.json (decoded to land polygons)", "license": "see github.com/g0v/twgeojson", "features": [{"type": "Feature", "properties": {}, "geometry": {"type": "Polygon", "coordinates": [[[120.13192, 23.53005], [120.12728, 23.53005], [120.12631, 23.54452], [120.13657, 23.54339], [120.13192, 23.53005]]]}}, {"type": "Feature", "properties": {}, "geometry": {"type": "Polygon", "coordinates": [[[120.09748, 23.52138], [120.09123, 23.53118], [120.09844, 23.54211], [120.10533, 23.536], [120.09748, 23.52138]]]}}, {"type": "Feature", "properties": {}, "geometry": {"type": "Polygon", "coordinates": [[[120.05983, 23.48956], [120.04685, 23.47783], [120.02987, 23.4796], [120.02298, 23.47092], [120.02458, 23.46032], [120.00439, 23.46032], [119.99686, 23.46578], [120.01609, 23.48426], [120.08114, 23.52411], [120.09075, 23.52025], [120.09363, 23.51061], [120.0821, 23.5119], [120.06992, 23.5037], [120.05983, 23.48956]]]}}, {"type": "Feature", "properties": {}, "geometry": {"type": "Polygon", "coordinates": [[[120.73079, 23.61072], [120.72487, 23.60365], [120.73256, 23.59722], [120.73208, 23.57713], [120.71846, 23.5691], [120.70933, 23.57505], [120.69411, 23.57633], [120.67616, 23.57055], [120.67055, 23.57826], [120.65085, 23.57248], [120.64412, 23.57906], [120.64877, 23.59336], [120.62553, 23.59063], [120.61881, 23.5842], [120.57683, 23.58356], [120.55664, 23.59288], [120.53694, 23.59481], [120.51755, 23.61104], [120.50634, 23.62614], [120.50361, 23.6353], [120.48583, 23.63064], [120.47862, 23.63273], [120.4602, 23.6292], [120.4445, 23.63048], [120.42992, 23.61843], [120.40268, 23.62695], [120.3865, 23.621], [120.37977, 23.60991], [120.36647, 23.60783], [120.3567, 23.59401], [120.33363, 23.59176], [120.33251, 23.57826], [120.31056, 23.5646], [120.29326, 23.56412], [120.29085, 23.55126], [120.27611, 23.54307], [120.27243, 23.53134], [120.26282, 23.53423], [120.25609, 23.54612], [120.24215, 23.54146], [120.24711, 23.51624], [120.24151, 23.50901], [120.22308, 23.50435], [120.19569, 23.51286], [120.18047, 23.50997], [120.16653, 23.5172], [120.14586, 23.52074], [120.15035, 23.53198], [120.13961, 23.54966], [120.14154, 23.612], [120.13993, 23.62132], [120.14554, 23.65201], [120.15083, 23.65587], [120.16316, 23.68335], [120.1787, 23.70182], [120.16973, 23.70761], [120.17358, 23.73621], [120.18095, 23.75855], [120.16941, 23.75855], [120.16573, 23.7706], [120.17101, 23.77236], [120.18191, 23.79872], [120.17646, 23.80546], [120.20017, 23.81912], [120.21283, 23.82282], [120.22308, 23.83567], [120.2186, 23.84082], [120.22741, 23.8466], [120.24231, 23.84226], [120.25513, 23.83423], [120.30816, 23.82025], [120.36006, 23.8233], [120.37032, 23.8286], [120.41037, 23.82635], [120.43312, 23.83021], [120.45203, 23.81719], [120.48311, 23.80659], [120.51098, 23.80016], [120.552, 23.80097], [120.59269, 23.791], [120.63018, 23.78972], [120.64027, 23.78602], [120.65549, 23.75549], [120.65581, 23.73541], [120.64027, 23.73091], [120.63915, 23.71066], [120.64796, 23.68319], [120.647, 23.6729], [120.63499, 23.65185], [120.62906, 23.63514], [120.63387, 23.61923], [120.64492, 23.63112], [120.65309, 23.62952], [120.65165, 23.61634], [120.66142, 23.61024], [120.68353, 23.61072], [120.69154, 23.6202], [120.70516, 23.61714], [120.71862, 23.63], [120.73063, 23.61843], [120.73079, 23.61072]]]}}, {"type": "Feature", "properties": {}, "geometry": {"type": "Polygon", "coordinates": [[[121.28352, 25.11728], [121.28272, 25.11005], [121.2917, 25.10266], [121.2981, 25.10458], [121.30275, 25.09687], [121.32486, 25.09253], [121.33896, 25.0837], [121.34617, 25.0837], [121.35482, 25.06506], [121.37693, 25.06602], [121.38894, 25.06072], [121.3875, 25.05509], [121.39808, 25.05108], [121.39824, 25.03003], [121.41169, 25.0183], [121.39711, 25.01621], [121.4016, 24.99918], [121.36876, 24.97684], [121.34264, 24.9823], [121.32726, 24.97829], [121.32967, 24.96688], [121.3279, 24.9492], [121.31573, 24.93844], [121.3247, 24.92333], [121.31749, 24.91642], [121.32614, 24.90919], [121.32037, 24.9002], [121.33335, 24.89168], [121.34216, 24.89264], [121.34569, 24.87995], [121.35434, 24.8732], [121.34585, 24.86822], [121.35354, 24.85858], [121.34697, 24.84588], [121.37292, 24.8348], [121.39343, 24.84396], [121.40304, 24.84347], [121.4157, 24.8356], [121.41698, 24.82548], [121.42387, 24.82532], [121.43637, 24.81214], [121.43861, 24.79511], [121.4495, 24.78611], [121.42547, 24.76699], [121.42323, 24.76185], [121.43508, 24.73405], [121.45014, 24.70577], [121.47418, 24.69613], [121.47306, 24.69002], [121.47978, 24.67379], [121.45976, 24.67331], [121.44758, 24.65724], [121.45127, 24.65098], [121.44037, 24.63491], [121.42788, 24.60631], [121.41282, 24.60374], [121.40304, 24.59168], [121.3875, 24.58654], [121.37244, 24.5941], [121.36347, 24.60293], [121.35882, 24.61739], [121.36555, 24.63073], [121.35802, 24.63362], [121.35226, 24.64487], [121.35354, 24.66624], [121.33976, 24.67042], [121.3388, 24.67958], [121.32967, 24.69099], [121.31813, 24.69806], [121.30387, 24.69291], [121.29955, 24.69661], [121.30756, 24.71991], [121.29858, 24.73084], [121.30772, 24.7551], [121.30147, 24.76313], [121.27712, 24.77101], [121.26029, 24.78193], [121.26126, 24.78997], [121.24716, 24.79736], [121.24539, 24.807], [121.22152, 24.79945], [121.2172, 24.81246], [121.20742, 24.807], [121.20326, 24.81728], [121.17378, 24.82757], [121.17634, 24.83191], [121.15199, 24.8438], [121.16128, 24.85954], [121.15584, 24.88059], [121.13885, 24.88236], [121.13565, 24.87802], [121.10841, 24.88606], [121.10905, 24.89779], [121.09111, 24.89345], [121.08358, 24.89875], [121.07108, 24.89955], [121.05907, 24.9071], [121.06083, 24.92028], [121.05763, 24.93297], [121.03776, 24.94631], [121.01934, 24.94037], [121.00716, 24.94615], [121.00299, 24.94004], [120.98601, 24.9394], [120.99194, 24.94969], [121.00267, 24.95836], [121.01245, 24.97427], [121.01052, 24.98729], [121.02542, 25.01187], [121.04978, 25.04015], [121.08374, 25.05236], [121.09127, 25.06168], [121.11995, 25.0747], [121.1733, 25.08594], [121.21223, 25.10876], [121.24267, 25.11519], [121.26045, 25.12194], [121.28352, 25.11728]]]}}, {"type": "Feature", "properties": {}, "geometry": {"type": "Polygon", "coordinates": [[[121.50045, 22.64662], [121.5059, 22.63345], [121.49484, 22.63345], [121.49196, 22.63971], [121.47241, 22.6471], [121.4745, 22.65964], [121.4644, 22.67024], [121.46408, 22.6786], [121.49388, 22.67635], [121.50942, 22.67892], [121.51022, 22.66478], [121.50045, 22.64662]]]}}, {"type": "Feature", "properties": {}, "geometry": {"type": "Polygon", "coordinates": [[[121.49581, 23.43461], [121.47802, 23.39588], [121.47193, 23.3721], [121.46777, 23.33161], [121.46264, 23.31426], [121.44838, 23.31088], [121.43829, 23.29899], [121.42772, 23.27875], [121.4141, 23.23199], [121.42003, 23.22653], [121.41009, 23.21351], [121.39744, 23.20789], [121.39776, 23.18619], [121.40737, 23.16579], [121.3992, 23.14731], [121.40112, 23.13044], [121.41105, 23.12208], [121.40048, 23.11389], [121.39631, 23.1171], [121.38654, 23.10312], [121.36619, 23.09621], [121.34825, 23.06809], [121.34585, 23.0509], [121.33976, 23.03821], [121.33639, 23.01989], [121.32774, 23.01475], [121.31685, 22.98229], [121.29971, 22.95979], [121.28721, 22.95272], [121.26782, 22.91094], [121.26077, 22.905], [121.24732, 22.88138], [121.24027, 22.87993], [121.23386, 22.86515], [121.22665, 22.86804], [121.2071, 22.86435], [121.1898, 22.84892], [121.18756, 22.82916], [121.19236, 22.82546], [121.20102, 22.79574], [121.18307, 22.78722], [121.17987, 22.76954], [121.17298, 22.7554], [121.15696, 22.74737], [121.12796, 22.71989], [121.10088, 22.70495], [121.07749, 22.69563], [121.05602, 22.67715], [121.03472, 22.66703], [121.02222, 22.64919], [121.01261, 22.61947], [121.00924, 22.58894], [120.98505, 22.56869], [120.97496, 22.54812], [120.95926, 22.5041], [120.94644, 22.45686], [120.92209, 22.39837], [120.91488, 22.38487], [120.90879, 22.35932], [120.90254, 22.35241], [120.89485, 22.33442], [120.89245, 22.31803], [120.89197, 22.27689], [120.89629, 22.24636], [120.88043, 22.23447], [120.86633, 22.22981], [120.85864, 22.24074], [120.83942, 22.24363], [120.81539, 22.26323], [120.79969, 22.25713], [120.79808, 22.27641], [120.78991, 22.29344], [120.77774, 22.29794], [120.77806, 22.30855], [120.79312, 22.31256], [120.79648, 22.31979], [120.7928, 22.33474], [120.78511, 22.3455], [120.76732, 22.34759], [120.763, 22.35916], [120.75274, 22.36029], [120.74345, 22.36736], [120.74874, 22.38053], [120.75643, 22.38857], [120.75226, 22.39242], [120.75771, 22.40479], [120.7646, 22.40881], [120.77998, 22.40929], [120.78959, 22.41765], [120.77501, 22.44352], [120.77645, 22.44946], [120.75819, 22.45862], [120.75146, 22.45846], [120.75435, 22.47244], [120.75082, 22.47919], [120.7638, 22.49108], [120.76268, 22.50088], [120.7537, 22.51101], [120.75002, 22.53398], [120.73945, 22.5515], [120.74153, 22.56869], [120.74874, 22.57207], [120.74585, 22.58958], [120.75483, 22.60195], [120.7529, 22.61159], [120.76155, 22.63023], [120.78639, 22.66301], [120.79135, 22.67876], [120.78671, 22.6929], [120.80802, 22.6892], [120.82035, 22.69579], [120.83493, 22.69659], [120.84855, 22.717], [120.8838, 22.71732], [120.89485, 22.73773], [120.89325, 22.76649], [120.90382, 22.77565], [120.90318, 22.80007], [120.89117, 22.81164], [120.86858, 22.81695], [120.86169, 22.82659], [120.86473, 22.84314], [120.86906, 22.85824], [120.85928, 22.86322], [120.86489, 22.87238], [120.85976, 22.87817], [120.84198, 22.88122], [120.82868, 22.9042], [120.83333, 22.91223], [120.82179, 22.93521], [120.82452, 22.95176], [120.82099, 22.96092], [120.83013, 22.97008], [120.83221, 22.98004], [120.86057, 23.008], [120.86105, 23.02969], [120.87963, 23.03467], [120.88123, 23.04415], [120.86922, 23.05974], [120.88556, 23.08898], [120.8894, 23.11003], [120.88508, 23.11983], [120.88796, 23.1367], [120.87643, 23.15133], [120.89501, 23.16065], [120.89838, 23.17607], [120.90927, 23.17977], [120.91247, 23.18668], [120.90655, 23.19648], [120.91167, 23.20917], [120.91167, 23.22845], [120.91584, 23.23793], [120.92625, 23.24452], [120.93795, 23.24516], [120.97095, 23.28116], [120.98601, 23.28035], [121.01052, 23.29273], [121.02831, 23.29707], [121.03888, 23.3006], [121.05634, 23.29016], [121.06211, 23.27907], [121.06243, 23.26589], [121.07958, 23.23279], [121.09239, 23.23392], [121.10857, 23.22347], [121.12924, 23.22331], [121.13981, 23.20146], [121.156, 23.20017], [121.1616, 23.20628], [121.17586, 23.21014], [121.19092, 23.20226], [121.19813, 23.1886], [121.19925, 23.17511], [121.21255, 23.15486], [121.21191, 23.14426], [121.23081, 23.13927], [121.23851, 23.12867], [121.24924, 23.13156], [121.26702, 23.11437], [121.2643, 23.10392], [121.27231, 23.09782], [121.28449, 23.1065], [121.30291, 23.11099], [121.31605, 23.11067], [121.32262, 23.11999], [121.32037, 23.13783], [121.32726, 23.15213], [121.31749, 23.16434], [121.32374, 23.17832], [121.33463, 23.17784], [121.34697, 23.20933], [121.34649, 23.21705], [121.35642, 23.22315], [121.35258, 23.23135], [121.36155, 23.24693], [121.3593, 23.25256], [121.37789, 23.26959], [121.37645, 23.29578], [121.38782, 23.31072], [121.39023, 23.32052], [121.39984, 23.32326], [121.40208, 23.33402], [121.42275, 23.36005], [121.40737, 23.36455], [121.4, 23.38544], [121.41041, 23.39878], [121.41954, 23.41934], [121.43332, 23.43284], [121.44085, 23.43397], [121.44742, 23.44377], [121.462, 23.43943], [121.47322, 23.44055], [121.48042, 23.43075], [121.49581, 23.43461]]]}}, {"type": "Feature", "properties": {}, "geometry": {"type": "Polygon", "coordinates": [[[121.50942, 22.06913], [121.49965, 22.08005], [121.50558, 22.086], [121.51279, 22.08102], [121.53185, 22.08118], [121.56806, 22.0852], [121.56886, 22.06752], [121.57415, 22.06093], [121.56406, 22.05145], [121.56982, 22.04004], [121.60058, 22.02044], [121.59321, 22.00261], [121.5703, 22.00293], [121.56934, 22.00871], [121.55316, 22.02478], [121.53378, 22.02671], [121.51727, 22.04294], [121.50734, 22.05772], [121.50942, 22.06913]]]}}, {"type": "Feature", "properties": {}, "geometry": {"type": "Polygon", "coordinates": [[[121.47978, 24.67379], [121.47306, 24.69002], [121.47418, 24.69613], [121.45014, 24.70577], [121.43508, 24.73405], [121.42323, 24.76185], [121.42547, 24.76699], [121.4495, 24.78611], [121.43861, 24.79511], [121.43637, 24.81214], [121.42387, 24.82532], [121.41698, 24.82548], [121.4157, 24.8356], [121.40304, 24.84347], [121.39343, 24.84396], [121.37292, 24.8348], [121.34697, 24.84588], [121.35354, 24.85858], [121.34585, 24.86822], [121.35434, 24.8732], [121.34569, 24.87995], [121.34216, 24.89264], [121.33335, 24.89168], [121.32037, 24.9002], [121.32614, 24.90919], [121.31749, 24.91642], [121.3247, 24.92333], [121.31573, 24.93844], [121.3279, 24.9492], [121.32967, 24.96688], [121.32726, 24.97829], [121.34264, 24.9823], [121.36876, 24.97684], [121.4016, 24.99918], [121.39711, 25.01621], [121.41169, 25.0183], [121.39824, 25.03003], [121.39808, 25.05108], [121.3875, 25.05509], [121.38894, 25.06072], [121.37693, 25.06602], [121.35482, 25.06506], [121.34617, 25.0837], [121.33896, 25.0837], [121.32486, 25.09253], [121.30275, 25.09687], [121.2981, 25.10458], [121.2917, 25.10266], [121.28272, 25.11005], [121.28352, 25.11728], [121.30483, 25.12612], [121.31028, 25.12322], [121.33287, 25.12467], [121.35017, 25.12981], [121.38654, 25.1454], [121.40048, 25.15488], [121.41282, 25.16789], [121.40641, 25.17384], [121.40897, 25.18814], [121.41762, 25.19441], [121.43332, 25.2161], [121.43925, 25.21899], [121.44758, 25.24598], [121.47306, 25.25434], [121.47914, 25.268], [121.51279, 25.28567], [121.52721, 25.28567], [121.54034, 25.29499], [121.56053, 25.29194], [121.56806, 25.29772], [121.57896, 25.29821], [121.61757, 25.27764], [121.63311, 25.2598], [121.63423, 25.23956], [121.64288, 25.23088], [121.65089, 25.23088], [121.65361, 25.2161], [121.67124, 25.20244], [121.69335, 25.20806], [121.69495, 25.20292], [121.68582, 25.18958], [121.69255, 25.1801], [121.70889, 25.17544], [121.67765, 25.15568], [121.65826, 25.15231], [121.64945, 25.14492], [121.63455, 25.14395], [121.62942, 25.13399], [121.6432, 25.12772], [121.64897, 25.10201], [121.6557, 25.0935], [121.69927, 25.06747], [121.71241, 25.06795], [121.73212, 25.05268], [121.74333, 25.05252], [121.75919, 25.05943], [121.7624, 25.05702], [121.7757, 25.07004], [121.7616, 25.07839], [121.75599, 25.10844], [121.77297, 25.12017], [121.78979, 25.11246], [121.7978, 25.11439], [121.80485, 25.12499], [121.80325, 25.13576], [121.8212, 25.13415], [121.81975, 25.12274], [121.82552, 25.12129], [121.84186, 25.12885], [121.86814, 25.12226], [121.90627, 25.12162], [121.91748, 25.11696], [121.92325, 25.10523], [121.91364, 25.0853], [121.92533, 25.06714], [121.93078, 25.06409], [121.92774, 25.0461], [121.93222, 25.03276], [121.9452, 25.02103], [121.97868, 25.02553], [121.99647, 25.01862], [122.00656, 25.01058], [122.0048, 25.00303], [121.99599, 25.00175], [121.98413, 24.99195], [121.96603, 24.98311], [121.96298, 24.98761], [121.94408, 24.98793], [121.9335, 24.98086], [121.91268, 24.97829], [121.88864, 24.96318], [121.87182, 24.96077], [121.86109, 24.96367], [121.84731, 24.96029], [121.84154, 24.95435], [121.83978, 24.94229], [121.85356, 24.9251], [121.83145, 24.90486], [121.81831, 24.90277], [121.81158, 24.90646], [121.78162, 24.88943], [121.78323, 24.87416], [121.77537, 24.86517], [121.76929, 24.86581], [121.76112, 24.85681], [121.74205, 24.85247], [121.73052, 24.85537], [121.68758, 24.82484], [121.68822, 24.81616], [121.67684, 24.81407], [121.66915, 24.81793], [121.66082, 24.81086], [121.64721, 24.81391], [121.64576, 24.80973], [121.6259, 24.80877], [121.62574, 24.79543], [121.60956, 24.79382], [121.59353, 24.78724], [121.59754, 24.77261], [121.58889, 24.7551], [121.5961, 24.74819], [121.59418, 24.72923], [121.58697, 24.72007], [121.57944, 24.72232], [121.57046, 24.71396], [121.54323, 24.70561], [121.53634, 24.68826], [121.52384, 24.68327], [121.51183, 24.6844], [121.49244, 24.67315], [121.47978, 24.67379]]]}}, {"type": "Feature", "properties": {}, "geometry": {"type": "Polygon", "coordinates": [[[121.52737, 24.98696], [121.53265, 25.00207], [121.53057, 25.00978], [121.51984, 25.01926], [121.51038, 25.02167], [121.49308, 25.0093], [121.48892, 25.01396], [121.48747, 25.03597], [121.50317, 25.04834], [121.50702, 25.07116], [121.50253, 25.08321], [121.48876, 25.09719], [121.46617, 25.10169], [121.45703, 25.10924], [121.45928, 25.12194], [121.48283, 25.15022], [121.48731, 25.15134], [121.50285, 25.17336], [121.51984, 25.16918], [121.52176, 25.17914], [121.54275, 25.18894], [121.55492, 25.20838], [121.56245, 25.20951], [121.57287, 25.19505], [121.58312, 25.19505], [121.58344, 25.17705], [121.57703, 25.16693], [121.58793, 25.16291], [121.59578, 25.14363], [121.60411, 25.13624], [121.59562, 25.11326], [121.62622, 25.09575], [121.62862, 25.08627], [121.61612, 25.06393], [121.62189, 25.05975], [121.61644, 25.04818], [121.62205, 25.03999], [121.65025, 25.02762], [121.66499, 25.02954], [121.66419, 25.02344], [121.63247, 25.02569], [121.62349, 25.01733], [121.60411, 25.0191], [121.5977, 25.01476], [121.59594, 25.00432], [121.60203, 24.99034], [121.6001, 24.977], [121.61148, 24.97459], [121.61965, 24.9672], [121.5969, 24.96061], [121.57479, 24.96688], [121.56117, 24.96463], [121.553, 24.98054], [121.53346, 24.99211], [121.52737, 24.98696]]]}}, {"type": "Feature", "properties": {}, "geometry": {"type": "Polygon", "coordinates": [[[120.65357, 23.2246], [120.6563, 23.21785], [120.64332, 23.20323], [120.63659, 23.19037], [120.63995, 23.18266], [120.63066, 23.17013], [120.61656, 23.16306], [120.61176, 23.15165], [120.60102, 23.1441], [120.58853, 23.12337], [120.58821, 23.11421], [120.57411, 23.0946], [120.57475, 23.09139], [120.55312, 23.06793], [120.54238, 23.06343], [120.50377, 23.02873], [120.48263, 23.01555], [120.47846, 23.0035], [120.46036, 23.00334], [120.45315, 22.97859], [120.44498, 22.97956], [120.43296, 22.9561], [120.41646, 22.91641], [120.40877, 22.91239], [120.39851, 22.92251], [120.38057, 22.9201], [120.3724, 22.90773], [120.36247, 22.90195], [120.35093, 22.88909], [120.33251, 22.88925], [120.32418, 22.90034], [120.31456, 22.8997], [120.27804, 22.90452], [120.27403, 22.8952], [120.26009, 22.90179], [120.254, 22.89423], [120.24295, 22.90355], [120.23318, 22.90532], [120.23173, 22.91544], [120.2202, 22.90966], [120.192, 22.92123], [120.20129, 22.94485], [120.21667, 22.94517], [120.21651, 22.96043], [120.23782, 22.96108], [120.23894, 22.98004], [120.24904, 22.97699], [120.24776, 22.99064], [120.23991, 22.99852], [120.22853, 23.00189], [120.22917, 23.01041], [120.2194, 23.02856], [120.22533, 23.04206], [120.24119, 23.05202], [120.24695, 23.06552], [120.23782, 23.06697], [120.22244, 23.07564], [120.20626, 23.07709], [120.18736, 23.0832], [120.18159, 23.07757], [120.16396, 23.08464], [120.16268, 23.09043], [120.1489, 23.09139], [120.11142, 23.08802], [120.101, 23.08496], [120.07441, 23.05909], [120.06255, 23.04319], [120.05374, 23.04801], [120.04973, 23.05813], [120.03163, 23.07339], [120.03531, 23.10119], [120.0414, 23.11405], [120.06159, 23.14345], [120.06912, 23.18459], [120.08242, 23.21014], [120.08178, 23.23488], [120.08738, 23.23809], [120.0978, 23.29482], [120.10276, 23.2961], [120.11574, 23.3231], [120.11814, 23.34013], [120.14858, 23.31972], [120.14858, 23.31442], [120.17101, 23.30462], [120.18063, 23.29096], [120.18848, 23.30124], [120.20418, 23.29192], [120.22084, 23.29594], [120.23782, 23.32695], [120.25641, 23.33113], [120.26714, 23.34061], [120.2657, 23.35234], [120.27611, 23.34832], [120.28605, 23.35025], [120.28589, 23.36712], [120.29294, 23.37532], [120.31104, 23.37548], [120.31104, 23.3856], [120.33363, 23.38592], [120.34949, 23.40135], [120.38105, 23.40344], [120.40813, 23.4134], [120.43056, 23.40665], [120.43825, 23.4134], [120.47333, 23.39813], [120.47942, 23.38753], [120.49016, 23.39556], [120.49929, 23.38785], [120.48439, 23.3795], [120.49432, 23.36953], [120.5049, 23.36889], [120.51194, 23.35523], [120.50361, 23.35122], [120.50794, 23.34302], [120.51563, 23.34366], [120.53373, 23.33643], [120.53998, 23.32792], [120.52252, 23.31169], [120.52604, 23.29241], [120.52188, 23.28791], [120.5222, 23.27393], [120.53197, 23.25545], [120.53053, 23.24902], [120.51899, 23.23938], [120.52636, 23.23102], [120.54158, 23.22781], [120.55488, 23.21769], [120.5653, 23.2209], [120.57827, 23.2148], [120.5866, 23.22412], [120.59718, 23.22894], [120.60983, 23.22267], [120.62826, 23.22942], [120.65357, 23.2246]]]}}, {"type": "Feature", "properties": {}, "geometry": {"type": "Polygon", "coordinates": [[[120.06255, 23.04319], [120.07441, 23.05909], [120.101, 23.08496], [120.11142, 23.08802], [120.1489, 23.09139], [120.16268, 23.09043], [120.16396, 23.08464], [120.18159, 23.07757], [120.18736, 23.0832], [120.20626, 23.07709], [120.22244, 23.07564], [120.23782, 23.06697], [120.24695, 23.06552], [120.24119, 23.05202], [120.22533, 23.04206], [120.2194, 23.02856], [120.22917, 23.01041], [120.22853, 23.00189], [120.23991, 22.99852], [120.24776, 22.99064], [120.24904, 22.97699], [120.23894, 22.98004], [120.23782, 22.96108], [120.21651, 22.96043], [120.21667, 22.94517], [120.20129, 22.94485], [120.192, 22.92123], [120.17502, 22.91175], [120.17566, 22.93183], [120.17214, 22.94742], [120.1566, 22.97843], [120.13785, 22.99803], [120.11093, 23.01812], [120.07713, 23.03837], [120.06255, 23.04319]]]}}, {"type": "Feature", "properties": {}, "geometry": {"type": "Polygon", "coordinates": [[[120.62121, 24.44096], [120.63963, 24.42779], [120.64828, 24.40995], [120.65822, 24.40658], [120.67728, 24.38408], [120.68978, 24.37444], [120.69282, 24.36721], [120.70724, 24.35773], [120.73047, 24.35179], [120.76284, 24.32608], [120.78382, 24.31836], [120.80641, 24.31579], [120.83317, 24.29073], [120.85752, 24.28912], [120.87482, 24.2949], [120.90446, 24.29217], [120.92193, 24.30246], [120.91632, 24.33459], [120.9357, 24.34279], [120.95669, 24.33909], [120.97207, 24.33347], [120.98201, 24.33588], [120.99178, 24.32961], [121.00476, 24.33186], [121.01757, 24.31194], [121.03424, 24.29764], [121.04513, 24.29539], [121.05202, 24.29956], [121.05506, 24.31017], [121.08118, 24.32399], [121.08614, 24.31772], [121.09399, 24.31965], [121.10841, 24.3309], [121.12107, 24.33058], [121.12475, 24.34182], [121.14094, 24.35966], [121.16769, 24.36078], [121.17282, 24.373], [121.18964, 24.38151], [121.19669, 24.39662], [121.20678, 24.3979], [121.21543, 24.37942], [121.23162, 24.3844], [121.23402, 24.39742], [121.24283, 24.40578], [121.24507, 24.42249], [121.25949, 24.42907], [121.26862, 24.42747], [121.30451, 24.43277], [121.31669, 24.44177], [121.32694, 24.43438], [121.32694, 24.39871], [121.33752, 24.39035], [121.3545, 24.3934], [121.36395, 24.38955], [121.37276, 24.36866], [121.38045, 24.36737], [121.38926, 24.37573], [121.43685, 24.38344], [121.44165, 24.3738], [121.44694, 24.37557], [121.45095, 24.36544], [121.44101, 24.3595], [121.43476, 24.34809], [121.43172, 24.33009], [121.43412, 24.32302], [121.42275, 24.30904], [121.40464, 24.30888], [121.40192, 24.29619], [121.37997, 24.27996], [121.38446, 24.25538], [121.36635, 24.25248], [121.3521, 24.24429], [121.35194, 24.23497], [121.34264, 24.22404], [121.32983, 24.2316], [121.29858, 24.23625], [121.29282, 24.22967], [121.28, 24.23031], [121.26879, 24.23818], [121.2651, 24.24606], [121.25661, 24.24493], [121.24395, 24.22292], [121.23738, 24.22019], [121.21944, 24.22967], [121.20823, 24.22228], [121.19685, 24.22372], [121.18179, 24.21263], [121.16753, 24.22597], [121.16096, 24.21585], [121.14799, 24.21376], [121.13565, 24.19689], [121.10537, 24.19817], [121.0956, 24.19255], [121.08454, 24.17664], [121.05939, 24.16379], [121.05234, 24.15559], [121.04737, 24.16089], [121.01982, 24.15977], [121.01229, 24.15431], [120.99963, 24.12795], [120.9921, 24.12105], [120.97512, 24.11687], [120.96134, 24.12008], [120.9498, 24.12779], [120.9325, 24.11253], [120.91968, 24.10739], [120.89501, 24.11655], [120.89133, 24.09775], [120.88203, 24.08827], [120.87691, 24.09116], [120.88155, 24.10048], [120.87242, 24.11687], [120.85736, 24.11719], [120.854, 24.12426], [120.84486, 24.12458], [120.83637, 24.11703], [120.82852, 24.09437], [120.82932, 24.07139], [120.80722, 24.06449], [120.80369, 24.0534], [120.78463, 24.02399], [120.77149, 24.01435], [120.77069, 24.00905], [120.74601, 23.99844], [120.73176, 24.00889], [120.71926, 24.00969], [120.70644, 24.00519], [120.67873, 24.01403], [120.65581, 24.03058], [120.6446, 24.02592], [120.6281, 24.03829], [120.62345, 24.05195], [120.62537, 24.06866], [120.61528, 24.08393], [120.61256, 24.10257], [120.57283, 24.10819], [120.54975, 24.11381], [120.53277, 24.12635], [120.52364, 24.13952], [120.52572, 24.149], [120.50794, 24.18725], [120.48583, 24.19737], [120.48855, 24.20573], [120.46821, 24.21247], [120.47654, 24.2242], [120.49064, 24.25522], [120.49833, 24.26389], [120.51066, 24.29249], [120.51883, 24.2986], [120.52813, 24.31386], [120.54238, 24.30615], [120.54975, 24.31547], [120.55168, 24.33363], [120.55921, 24.35404], [120.58708, 24.39196], [120.59509, 24.40947], [120.60807, 24.42168], [120.62121, 24.44096]]]}}, {"type": "Feature", "properties": {}, "geometry": {"type": "Polygon", "coordinates": [[[120.7537, 24.21922], [120.77021, 24.21569], [120.79616, 24.20396], [120.80097, 24.19705], [120.79744, 24.18355], [120.80273, 24.16941], [120.79408, 24.16572], [120.77565, 24.16845], [120.76908, 24.16009], [120.75467, 24.158], [120.74906, 24.16218], [120.72615, 24.15672], [120.70628, 24.16314], [120.69955, 24.149], [120.71285, 24.14579], [120.70404, 24.12458], [120.68882, 24.12474], [120.68385, 24.11896], [120.66206, 24.11108], [120.66142, 24.10658], [120.61961, 24.11478], [120.61881, 24.12394], [120.60006, 24.12956], [120.57475, 24.1474], [120.58484, 24.16941], [120.58276, 24.17311], [120.59782, 24.1895], [120.58772, 24.19271], [120.59638, 24.21408], [120.63579, 24.20396], [120.65133, 24.20958], [120.66479, 24.20717], [120.66479, 24.20171], [120.69683, 24.20299], [120.69395, 24.19191], [120.70115, 24.18709], [120.7356, 24.19416], [120.73848, 24.20203], [120.75034, 24.2046], [120.7537, 24.21922]]]}}, {"type": "Feature", "properties": {}, "geometry": {"type": "Polygon", "coordinates": [[[120.35878, 22.32172], [120.35301, 22.32494], [120.36327, 22.34004], [120.36711, 22.35161], [120.38105, 22.3553], [120.3889, 22.35016], [120.38746, 22.34245], [120.35878, 22.32172]]]}}, {"type": "Feature", "properties": {}, "geometry": {"type": "Polygon", "coordinates": [[[120.42399, 22.4771], [120.42575, 22.49815], [120.42287, 22.5184], [120.43088, 22.54395], [120.43665, 22.54764], [120.44273, 22.56242], [120.44706, 22.58588], [120.44514, 22.60035], [120.43793, 22.60677], [120.43344, 22.62332], [120.43584, 22.63039], [120.43665, 22.6651], [120.44257, 22.68438], [120.45106, 22.69788], [120.45571, 22.71861], [120.45379, 22.76938], [120.46404, 22.80023], [120.46869, 22.8306], [120.47622, 22.83816], [120.51002, 22.82851], [120.52348, 22.83285], [120.55328, 22.82835], [120.57443, 22.8478], [120.60535, 22.87302], [120.62025, 22.87559], [120.64492, 22.88524], [120.64845, 22.87704], [120.65806, 22.87977], [120.6611, 22.85969], [120.67264, 22.85647], [120.67905, 22.8629], [120.69042, 22.86483], [120.7058, 22.88122], [120.72503, 22.88074], [120.74265, 22.87351], [120.75515, 22.86467], [120.77838, 22.83526], [120.79264, 22.84105], [120.7936, 22.85213], [120.80097, 22.85101], [120.82244, 22.86531], [120.83701, 22.86419], [120.84775, 22.85181], [120.8532, 22.8576], [120.86473, 22.84314], [120.86169, 22.82659], [120.86858, 22.81695], [120.89117, 22.81164], [120.90318, 22.80007], [120.90382, 22.77565], [120.89325, 22.76649], [120.89485, 22.73773], [120.8838, 22.71732], [120.84855, 22.717], [120.83493, 22.69659], [120.82035, 22.69579], [120.80802, 22.6892], [120.78671, 22.6929], [120.79135, 22.67876], [120.78639, 22.66301], [120.76155, 22.63023], [120.7529, 22.61159], [120.75483, 22.60195], [120.74585, 22.58958], [120.74874, 22.57207], [120.74153, 22.56869], [120.73945, 22.5515], [120.75002, 22.53398], [120.7537, 22.51101], [120.76268, 22.50088], [120.7638, 22.49108], [120.75082, 22.47919], [120.75435, 22.47244], [120.75146, 22.45846], [120.75819, 22.45862], [120.77645, 22.44946], [120.77501, 22.44352], [120.78959, 22.41765], [120.77998, 22.40929], [120.7646, 22.40881], [120.75771, 22.40479], [120.75226, 22.39242], [120.75643, 22.38857], [120.74874, 22.38053], [120.74345, 22.36736], [120.75274, 22.36029], [120.763, 22.35916], [120.76732, 22.34759], [120.78511, 22.3455], [120.7928, 22.33474], [120.79648, 22.31979], [120.79312, 22.31256], [120.77806, 22.30855], [120.77774, 22.29794], [120.78991, 22.29344], [120.79808, 22.27641], [120.79969, 22.25713], [120.81539, 22.26323], [120.83942, 22.24363], [120.85864, 22.24074], [120.86633, 22.22981], [120.88043, 22.23447], [120.89629, 22.24636], [120.89934, 22.23399], [120.89389, 22.21792], [120.89645, 22.20346], [120.89069, 22.19591], [120.89389, 22.17727], [120.89117, 22.14802], [120.89709, 22.14336], [120.88572, 22.13276], [120.89341, 22.10834], [120.89998, 22.10576], [120.8987, 22.09419], [120.89149, 22.08632], [120.89373, 22.04792], [120.90078, 22.03442], [120.88812, 22.02623], [120.88716, 22.01723], [120.87675, 22.0116], [120.87482, 21.99955], [120.86185, 21.99216], [120.84583, 21.98814], [120.84102, 21.94942], [120.86153, 21.91712], [120.86649, 21.90089], [120.86089, 21.89672], [120.84839, 21.90089], [120.84711, 21.91295], [120.83445, 21.91873], [120.82211, 21.93464], [120.81266, 21.93351], [120.79824, 21.94187], [120.78238, 21.94444], [120.76636, 21.9589], [120.75402, 21.95649], [120.74361, 21.94444], [120.74682, 21.93416], [120.73961, 21.91985], [120.72711, 21.91873], [120.71141, 21.93416], [120.71285, 21.96565], [120.71589, 21.97272], [120.7066, 21.9957], [120.69907, 21.99827], [120.68722, 22.0206], [120.68722, 22.03281], [120.69539, 22.04181], [120.69763, 22.05499], [120.70708, 22.0619], [120.70132, 22.08616], [120.71686, 22.09323], [120.70997, 22.12376], [120.70276, 22.13067], [120.69795, 22.14401], [120.70051, 22.14899], [120.6933, 22.17823], [120.68385, 22.19832], [120.68658, 22.20651], [120.67023, 22.23608], [120.65069, 22.25295], [120.65245, 22.26773], [120.64316, 22.29151], [120.64268, 22.3026], [120.6305, 22.31899], [120.60599, 22.341], [120.59237, 22.36478], [120.57763, 22.37716], [120.54847, 22.39612], [120.47093, 22.43613], [120.45203, 22.44802], [120.43873, 22.4636], [120.44369, 22.4673], [120.42399, 22.4771]]]}}, {"type": "Feature", "properties": {}, "geometry": {"type": "Polygon", "coordinates": [[[121.34264, 24.22404], [121.34905, 24.21087], [121.34937, 24.20107], [121.32518, 24.19592], [121.30595, 24.18018], [121.28641, 24.17745], [121.28833, 24.15768], [121.28144, 24.13551], [121.29538, 24.13261], [121.31621, 24.11639], [121.32854, 24.1143], [121.32582, 24.10257], [121.31909, 24.09518], [121.3231, 24.08489], [121.3082, 24.07332], [121.29907, 24.06159], [121.2957, 24.06384], [121.2832, 24.05404], [121.28545, 24.03926], [121.27648, 24.02431], [121.27007, 24.0068], [121.2611, 23.99411], [121.26478, 23.97531], [121.27375, 23.97498], [121.27792, 23.96583], [121.27199, 23.93819], [121.27648, 23.9226], [121.27599, 23.90975], [121.2611, 23.90268], [121.2683, 23.8834], [121.2651, 23.87279], [121.25308, 23.86797], [121.24892, 23.85206], [121.23931, 23.84033], [121.2345, 23.81205], [121.22745, 23.8082], [121.22841, 23.78522], [121.2047, 23.77236], [121.20646, 23.76256], [121.22889, 23.74473], [121.24107, 23.70922], [121.23947, 23.68688], [121.23242, 23.67708], [121.23578, 23.66262], [121.22409, 23.63868], [121.22489, 23.62711], [121.21736, 23.61473], [121.21351, 23.60059], [121.20662, 23.59593], [121.19413, 23.60059], [121.17971, 23.58999], [121.17891, 23.58356], [121.15343, 23.58678], [121.15183, 23.57424], [121.16048, 23.56958], [121.15712, 23.55946], [121.14622, 23.55464], [121.15103, 23.54532], [121.14702, 23.52716], [121.13565, 23.51527], [121.12027, 23.52106], [121.10361, 23.51897], [121.09736, 23.5217], [121.09207, 23.51463], [121.06852, 23.51849], [121.06211, 23.49936], [121.05266, 23.49358], [121.05346, 23.4878], [121.0392, 23.47414], [121.05891, 23.46193], [121.05154, 23.45084], [121.03456, 23.4457], [121.01517, 23.43525], [121.01036, 23.44586], [121.01581, 23.45164], [121.00764, 23.46273], [120.99979, 23.46209], [120.97063, 23.469], [120.95765, 23.46948], [120.9474, 23.46707], [120.93731, 23.47317], [120.93154, 23.4706], [120.91776, 23.47558], [120.88716, 23.47558], [120.88043, 23.46755], [120.86345, 23.47349], [120.83942, 23.47124], [120.82708, 23.48314], [120.82035, 23.52138], [120.80866, 23.53584], [120.8141, 23.55625], [120.82067, 23.56251], [120.81955, 23.57505], [120.82548, 23.58645], [120.81378, 23.60092], [120.80369, 23.59674], [120.77742, 23.60252], [120.76332, 23.61249], [120.75467, 23.61441], [120.73079, 23.61072], [120.73063, 23.61843], [120.71862, 23.63], [120.70516, 23.61714], [120.69154, 23.6202], [120.68353, 23.61072], [120.66142, 23.61024], [120.65165, 23.61634], [120.65309, 23.62952], [120.64492, 23.63112], [120.63387, 23.61923], [120.62906, 23.63514], [120.63499, 23.65185], [120.647, 23.6729], [120.64796, 23.68319], [120.63915, 23.71066], [120.64027, 23.73091], [120.65581, 23.73541], [120.65549, 23.75549], [120.64027, 23.78602], [120.66655, 23.79357], [120.67905, 23.80595], [120.6744, 23.82009], [120.65197, 23.81253], [120.63659, 23.82475], [120.6265, 23.84082], [120.61881, 23.84178], [120.62666, 23.85833], [120.62009, 23.86556], [120.63499, 23.89866], [120.63194, 23.90332], [120.63707, 23.92453], [120.62938, 23.92967], [120.63643, 23.93755], [120.6273, 23.95201], [120.63531, 23.95233], [120.64684, 23.96342], [120.64989, 23.98527], [120.63755, 23.99362], [120.64236, 24.00889], [120.67248, 24.00584], [120.67873, 24.01403], [120.70644, 24.00519], [120.71926, 24.00969], [120.73176, 24.00889], [120.74601, 23.99844], [120.77069, 24.00905], [120.77149, 24.01435], [120.78463, 24.02399], [120.80369, 24.0534], [120.80722, 24.06449], [120.82932, 24.07139], [120.82852, 24.09437], [120.83637, 24.11703], [120.84486, 24.12458], [120.854, 24.12426], [120.85736, 24.11719], [120.87242, 24.11687], [120.88155, 24.10048], [120.87691, 24.09116], [120.88203, 24.08827], [120.89133, 24.09775], [120.89501, 24.11655], [120.91968, 24.10739], [120.9325, 24.11253], [120.9498, 24.12779], [120.96134, 24.12008], [120.97512, 24.11687], [120.9921, 24.12105], [120.99963, 24.12795], [121.01229, 24.15431], [121.01982, 24.15977], [121.04737, 24.16089], [121.05234, 24.15559], [121.05939, 24.16379], [121.08454, 24.17664], [121.0956, 24.19255], [121.10537, 24.19817], [121.13565, 24.19689], [121.14799, 24.21376], [121.16096, 24.21585], [121.16753, 24.22597], [121.18179, 24.21263], [121.19685, 24.22372], [121.20823, 24.22228], [121.21944, 24.22967], [121.23738, 24.22019], [121.24395, 24.22292], [121.25661, 24.24493], [121.2651, 24.24606], [121.26879, 24.23818], [121.28, 24.23031], [121.29282, 24.22967], [121.29858, 24.23625], [121.32983, 24.2316], [121.34264, 24.22404]]]}}, {"type": "Feature", "properties": {}, "geometry": {"type": "Polygon", "coordinates": [[[121.25949, 24.42907], [121.24507, 24.42249], [121.24283, 24.40578], [121.23402, 24.39742], [121.23162, 24.3844], [121.21543, 24.37942], [121.20678, 24.3979], [121.19669, 24.39662], [121.18964, 24.38151], [121.17282, 24.373], [121.16769, 24.36078], [121.14094, 24.35966], [121.12475, 24.34182], [121.12107, 24.33058], [121.10841, 24.3309], [121.09399, 24.31965], [121.08614, 24.31772], [121.08118, 24.32399], [121.05506, 24.31017], [121.05202, 24.29956], [121.04513, 24.29539], [121.03424, 24.29764], [121.01757, 24.31194], [121.00476, 24.33186], [120.99178, 24.32961], [120.98201, 24.33588], [120.97207, 24.33347], [120.95669, 24.33909], [120.9357, 24.34279], [120.91632, 24.33459], [120.92193, 24.30246], [120.90446, 24.29217], [120.87482, 24.2949], [120.85752, 24.28912], [120.83317, 24.29073], [120.80641, 24.31579], [120.78382, 24.31836], [120.76284, 24.32608], [120.73047, 24.35179], [120.70724, 24.35773], [120.69282, 24.36721], [120.68978, 24.37444], [120.67728, 24.38408], [120.65822, 24.40658], [120.64828, 24.40995], [120.63963, 24.42779], [120.62121, 24.44096], [120.63242, 24.44787], [120.66655, 24.48435], [120.67168, 24.5001], [120.68706, 24.52307], [120.69683, 24.55007], [120.70612, 24.56806], [120.71125, 24.5859], [120.72615, 24.60824], [120.73704, 24.61193], [120.75931, 24.61402], [120.76171, 24.63957], [120.7803, 24.66094], [120.81619, 24.66897], [120.82868, 24.66962], [120.83381, 24.68054], [120.85864, 24.70031], [120.86537, 24.72393], [120.87851, 24.73517], [120.89101, 24.7318], [120.90591, 24.74064], [120.916, 24.72055], [120.93538, 24.71268], [120.9498, 24.71107], [120.95509, 24.70448], [120.97175, 24.71252], [120.974, 24.69693], [120.96582, 24.68488], [120.9764, 24.68327], [120.9772, 24.67428], [120.99707, 24.65467], [121.01036, 24.65628], [121.00812, 24.64439], [121.02526, 24.64118], [121.02943, 24.63282], [121.04321, 24.6272], [121.0533, 24.61547], [121.06243, 24.62173], [121.07365, 24.61322], [121.0831, 24.59008], [121.07541, 24.58108], [121.0706, 24.5634], [121.06275, 24.55746], [121.08038, 24.54123], [121.07829, 24.52886], [121.06692, 24.52275], [121.07188, 24.49833], [121.0863, 24.50106], [121.09848, 24.49656], [121.12379, 24.51006], [121.13693, 24.50668], [121.1451, 24.51199], [121.15023, 24.50636], [121.16913, 24.50267], [121.17795, 24.50765], [121.1866, 24.5054], [121.20086, 24.5115], [121.22345, 24.50604], [121.21864, 24.49833], [121.23466, 24.48772], [121.24443, 24.47005], [121.25805, 24.4633], [121.26254, 24.45527], [121.25805, 24.44096], [121.25949, 24.42907]]]}}, {"type": "Feature", "properties": {}, "geometry": {"type": "Polygon", "coordinates": [[[121.80325, 25.13576], [121.80485, 25.12499], [121.7978, 25.11439], [121.78979, 25.11246], [121.77297, 25.12017], [121.75599, 25.10844], [121.7616, 25.07839], [121.7757, 25.07004], [121.7624, 25.05702], [121.75919, 25.05943], [121.74333, 25.05252], [121.73212, 25.05268], [121.71241, 25.06795], [121.69927, 25.06747], [121.6557, 25.0935], [121.64897, 25.10201], [121.6432, 25.12772], [121.62942, 25.13399], [121.63455, 25.14395], [121.64945, 25.14492], [121.65826, 25.15231], [121.67765, 25.15568], [121.70889, 25.17544], [121.70728, 25.16484], [121.72507, 25.165], [121.74782, 25.15632], [121.7632, 25.16371], [121.77489, 25.15247], [121.78226, 25.15102], [121.80325, 25.13576]]]}}, {"type": "Feature", "properties": {}, "geometry": {"type": "Polygon", "coordinates": [[[120.42399, 22.4771], [120.41309, 22.47566], [120.3998, 22.48048], [120.36022, 22.50763], [120.37416, 22.52675], [120.39243, 22.53736], [120.39884, 22.54893], [120.39451, 22.56596], [120.38506, 22.57094], [120.38554, 22.57721], [120.37048, 22.58717], [120.34292, 22.58347], [120.32578, 22.58508], [120.32289, 22.59649], [120.33828, 22.60549], [120.33459, 22.6185], [120.34564, 22.62654], [120.34548, 22.64614], [120.33091, 22.66012], [120.3394, 22.67088], [120.32834, 22.67185], [120.32289, 22.68792], [120.31488, 22.69595], [120.32946, 22.71122], [120.34036, 22.73018], [120.34068, 22.74383], [120.32738, 22.75492], [120.32306, 22.73435], [120.31553, 22.73709], [120.31136, 22.73082], [120.30095, 22.72905], [120.29117, 22.73725], [120.27755, 22.73789], [120.27515, 22.73162], [120.26362, 22.72809], [120.25577, 22.71796], [120.23446, 22.76022], [120.21219, 22.80763], [120.19312, 22.86001], [120.19168, 22.86981], [120.17502, 22.91175], [120.192, 22.92123], [120.2202, 22.90966], [120.23173, 22.91544], [120.23318, 22.90532], [120.24295, 22.90355], [120.254, 22.89423], [120.26009, 22.90179], [120.27403, 22.8952], [120.27804, 22.90452], [120.31456, 22.8997], [120.32418, 22.90034], [120.33251, 22.88925], [120.35093, 22.88909], [120.36247, 22.90195], [120.3724, 22.90773], [120.38057, 22.9201], [120.39851, 22.92251], [120.40877, 22.91239], [120.41646, 22.91641], [120.43296, 22.9561], [120.44498, 22.97956], [120.45315, 22.97859], [120.46036, 23.00334], [120.47846, 23.0035], [120.48263, 23.01555], [120.50377, 23.02873], [120.54238, 23.06343], [120.55312, 23.06793], [120.57475, 23.09139], [120.57411, 23.0946], [120.58821, 23.11421], [120.58853, 23.12337], [120.60102, 23.1441], [120.61176, 23.15165], [120.61656, 23.16306], [120.63066, 23.17013], [120.63995, 23.18266], [120.63659, 23.19037], [120.64332, 23.20323], [120.6563, 23.21785], [120.65357, 23.2246], [120.64861, 23.24886], [120.6422, 23.25673], [120.64396, 23.28148], [120.64204, 23.29305], [120.65806, 23.29594], [120.67136, 23.29], [120.69362, 23.28453], [120.70356, 23.28919], [120.70372, 23.30044], [120.71221, 23.30863], [120.73063, 23.30558], [120.73015, 23.31104], [120.7481, 23.32213], [120.75883, 23.33643], [120.75963, 23.34415], [120.78318, 23.34222], [120.78847, 23.35282], [120.80481, 23.36728], [120.82868, 23.37516], [120.83077, 23.38624], [120.84935, 23.41211], [120.84951, 23.42015], [120.86457, 23.42384], [120.88604, 23.43477], [120.90046, 23.45405], [120.91295, 23.45855], [120.92689, 23.45582], [120.93667, 23.46369], [120.94836, 23.46417], [120.95765, 23.46948], [120.97063, 23.469], [120.99979, 23.46209], [121.00764, 23.46273], [121.01581, 23.45164], [121.01036, 23.44586], [121.01517, 23.43525], [121.02911, 23.42272], [121.02671, 23.40601], [121.00764, 23.38673], [120.98809, 23.37066], [120.98713, 23.35877], [121.00091, 23.3562], [121.00988, 23.34607], [121.01998, 23.35041], [121.02462, 23.33997], [121.04881, 23.32535], [121.04641, 23.30912], [121.03231, 23.30381], [121.02831, 23.29707], [121.01052, 23.29273], [120.98601, 23.28035], [120.97095, 23.28116], [120.93795, 23.24516], [120.92625, 23.24452], [120.91584, 23.23793], [120.91167, 23.22845], [120.91167, 23.20917], [120.90655, 23.19648], [120.91247, 23.18668], [120.90927, 23.17977], [120.89838, 23.17607], [120.89501, 23.16065], [120.87643, 23.15133], [120.88796, 23.1367], [120.88508, 23.11983], [120.8894, 23.11003], [120.88556, 23.08898], [120.86922, 23.05974], [120.88123, 23.04415], [120.87963, 23.03467], [120.86105, 23.02969], [120.86057, 23.008], [120.83221, 22.98004], [120.83013, 22.97008], [120.82099, 22.96092], [120.82452, 22.95176], [120.82179, 22.93521], [120.83333, 22.91223], [120.82868, 22.9042], [120.84198, 22.88122], [120.85976, 22.87817], [120.86489, 22.87238], [120.85928, 22.86322], [120.86906, 22.85824], [120.86473, 22.84314], [120.8532, 22.8576], [120.84775, 22.85181], [120.83701, 22.86419], [120.82244, 22.86531], [120.80097, 22.85101], [120.7936, 22.85213], [120.79264, 22.84105], [120.77838, 22.83526], [120.75515, 22.86467], [120.74265, 22.87351], [120.72503, 22.88074], [120.7058, 22.88122], [120.69042, 22.86483], [120.67905, 22.8629], [120.67264, 22.85647], [120.6611, 22.85969], [120.65806, 22.87977], [120.64845, 22.87704], [120.64492, 22.88524], [120.62025, 22.87559], [120.60535, 22.87302], [120.57443, 22.8478], [120.55328, 22.82835], [120.52348, 22.83285], [120.51002, 22.82851], [120.47622, 22.83816], [120.46869, 22.8306], [120.46404, 22.80023], [120.45379, 22.76938], [120.45571, 22.71861], [120.45106, 22.69788], [120.44257, 22.68438], [120.43665, 22.6651], [120.43584, 22.63039], [120.43344, 22.62332], [120.43793, 22.60677], [120.44514, 22.60035], [120.44706, 22.58588], [120.44273, 22.56242], [120.43665, 22.54764], [120.43088, 22.54395], [120.42287, 22.5184], [120.42575, 22.49815], [120.42399, 22.4771]]]}}, {"type": "Feature", "properties": {}, "geometry": {"type": "Polygon", "coordinates": [[[120.36022, 22.50763], [120.33811, 22.52531], [120.31472, 22.54716], [120.31681, 22.55134], [120.30351, 22.56435], [120.26233, 22.614], [120.2633, 22.62397], [120.25144, 22.64534], [120.25336, 22.66526], [120.27451, 22.6839], [120.26858, 22.70881], [120.26169, 22.69997], [120.25577, 22.71796], [120.26362, 22.72809], [120.27515, 22.73162], [120.27755, 22.73789], [120.29117, 22.73725], [120.30095, 22.72905], [120.31136, 22.73082], [120.31553, 22.73709], [120.32306, 22.73435], [120.32738, 22.75492], [120.34068, 22.74383], [120.34036, 22.73018], [120.32946, 22.71122], [120.31488, 22.69595], [120.32289, 22.68792], [120.32834, 22.67185], [120.3394, 22.67088], [120.33091, 22.66012], [120.34548, 22.64614], [120.34564, 22.62654], [120.33459, 22.6185], [120.33828, 22.60549], [120.32289, 22.59649], [120.32578, 22.58508], [120.34292, 22.58347], [120.37048, 22.58717], [120.38554, 22.57721], [120.38506, 22.57094], [120.39451, 22.56596], [120.39884, 22.54893], [120.39243, 22.53736], [120.37416, 22.52675], [120.36022, 22.50763]]]}}, {"type": "Feature", "properties": {}, "geometry": {"type": "Polygon", "coordinates": [[[121.9641, 24.83721], [121.94119, 24.83833], [121.94824, 24.85038], [121.95641, 24.8491], [121.9641, 24.83721]]]}}, {"type": "Feature", "properties": {}, "geometry": {"type": "Polygon", "coordinates": [[[121.77361, 24.31451], [121.75919, 24.31419], [121.74461, 24.32286], [121.71353, 24.32688], [121.69767, 24.33411], [121.68854, 24.33363], [121.68598, 24.34038], [121.67588, 24.33748], [121.66403, 24.34905], [121.64865, 24.34954], [121.63102, 24.37059], [121.62157, 24.36641], [121.62013, 24.34536], [121.60427, 24.32897], [121.60138, 24.31451], [121.55989, 24.32286], [121.55653, 24.33041], [121.54419, 24.33781], [121.53938, 24.33588], [121.52512, 24.34247], [121.49837, 24.33925], [121.48571, 24.34857], [121.46504, 24.35548], [121.45095, 24.36544], [121.44694, 24.37557], [121.44165, 24.3738], [121.43685, 24.38344], [121.38926, 24.37573], [121.38045, 24.36737], [121.37276, 24.36866], [121.36395, 24.38955], [121.3545, 24.3934], [121.33752, 24.39035], [121.32694, 24.39871], [121.32694, 24.43438], [121.31669, 24.44177], [121.3239, 24.45687], [121.33623, 24.4678], [121.34553, 24.48419], [121.35722, 24.48628], [121.37132, 24.49833], [121.37324, 24.50958], [121.3835, 24.51006], [121.39055, 24.52291], [121.4016, 24.52934], [121.39679, 24.53978], [121.39487, 24.55617], [121.40384, 24.56887], [121.41201, 24.57305], [121.40304, 24.59168], [121.41282, 24.60374], [121.42788, 24.60631], [121.44037, 24.63491], [121.45127, 24.65098], [121.44758, 24.65724], [121.45976, 24.67331], [121.47978, 24.67379], [121.49244, 24.67315], [121.51183, 24.6844], [121.52384, 24.68327], [121.53634, 24.68826], [121.54323, 24.70561], [121.57046, 24.71396], [121.57944, 24.72232], [121.58697, 24.72007], [121.59418, 24.72923], [121.5961, 24.74819], [121.58889, 24.7551], [121.59754, 24.77261], [121.59353, 24.78724], [121.60956, 24.79382], [121.62574, 24.79543], [121.6259, 24.80877], [121.64576, 24.80973], [121.64721, 24.81391], [121.66082, 24.81086], [121.66915, 24.81793], [121.67684, 24.81407], [121.68822, 24.81616], [121.68758, 24.82484], [121.73052, 24.85537], [121.74205, 24.85247], [121.76112, 24.85681], [121.76929, 24.86581], [121.77537, 24.86517], [121.78323, 24.87416], [121.78162, 24.88943], [121.81158, 24.90646], [121.81831, 24.90277], [121.83145, 24.90486], [121.85356, 24.9251], [121.83978, 24.94229], [121.84154, 24.95435], [121.84731, 24.96029], [121.86109, 24.96367], [121.87182, 24.96077], [121.88864, 24.96318], [121.91268, 24.97829], [121.9335, 24.98086], [121.94408, 24.98793], [121.96298, 24.98761], [121.96603, 24.98311], [121.95705, 24.98279], [121.92645, 24.96929], [121.91973, 24.95547], [121.89393, 24.94037], [121.8856, 24.93121], [121.88496, 24.91787], [121.86589, 24.90309], [121.83561, 24.86967], [121.82424, 24.82917], [121.81895, 24.79784], [121.81927, 24.75799], [121.82568, 24.73341], [121.83658, 24.71396], [121.83738, 24.67942], [121.8433, 24.65017], [121.85724, 24.61868], [121.86702, 24.60518], [121.85949, 24.60374], [121.86557, 24.58381], [121.87198, 24.58445], [121.86942, 24.57047], [121.87374, 24.5348], [121.86974, 24.52838], [121.84186, 24.52034], [121.83994, 24.49833], [121.84667, 24.49672], [121.85132, 24.48403], [121.83289, 24.46812], [121.82023, 24.46137], [121.82168, 24.45655], [121.81238, 24.44354], [121.80085, 24.43406], [121.79316, 24.41686], [121.78931, 24.39967], [121.78723, 24.37332], [121.77073, 24.33379], [121.77361, 24.31451]]]}}, {"type": "Feature", "properties": {}, "geometry": {"type": "Polygon", "coordinates": [[[121.02831, 23.29707], [121.03231, 23.30381], [121.04641, 23.30912], [121.04881, 23.32535], [121.02462, 23.33997], [121.01998, 23.35041], [121.00988, 23.34607], [121.00091, 23.3562], [120.98713, 23.35877], [120.98809, 23.37066], [121.00764, 23.38673], [121.02671, 23.40601], [121.02911, 23.42272], [121.01517, 23.43525], [121.03456, 23.4457], [121.05154, 23.45084], [121.05891, 23.46193], [121.0392, 23.47414], [121.05346, 23.4878], [121.05266, 23.49358], [121.06211, 23.49936], [121.06852, 23.51849], [121.09207, 23.51463], [121.09736, 23.5217], [121.10361, 23.51897], [121.12027, 23.52106], [121.13565, 23.51527], [121.14702, 23.52716], [121.15103, 23.54532], [121.14622, 23.55464], [121.15712, 23.55946], [121.16048, 23.56958], [121.15183, 23.57424], [121.15343, 23.58678], [121.17891, 23.58356], [121.17971, 23.58999], [121.19413, 23.60059], [121.20662, 23.59593], [121.21351, 23.60059], [121.21736, 23.61473], [121.22489, 23.62711], [121.22409, 23.63868], [121.23578, 23.66262], [121.23242, 23.67708], [121.23947, 23.68688], [121.24107, 23.70922], [121.22889, 23.74473], [121.20646, 23.76256], [121.2047, 23.77236], [121.22841, 23.78522], [121.22745, 23.8082], [121.2345, 23.81205], [121.23931, 23.84033], [121.24892, 23.85206], [121.25308, 23.86797], [121.2651, 23.87279], [121.2683, 23.8834], [121.2611, 23.90268], [121.27599, 23.90975], [121.27648, 23.9226], [121.27199, 23.93819], [121.27792, 23.96583], [121.27375, 23.97498], [121.26478, 23.97531], [121.2611, 23.99411], [121.27007, 24.0068], [121.27648, 24.02431], [121.28545, 24.03926], [121.2832, 24.05404], [121.2957, 24.06384], [121.29907, 24.06159], [121.3082, 24.07332], [121.3231, 24.08489], [121.31909, 24.09518], [121.32582, 24.10257], [121.32854, 24.1143], [121.31621, 24.11639], [121.29538, 24.13261], [121.28144, 24.13551], [121.28833, 24.15768], [121.28641, 24.17745], [121.30595, 24.18018], [121.32518, 24.19592], [121.34937, 24.20107], [121.34905, 24.21087], [121.34264, 24.22404], [121.35194, 24.23497], [121.3521, 24.24429], [121.36635, 24.25248], [121.38446, 24.25538], [121.37997, 24.27996], [121.40192, 24.29619], [121.40464, 24.30888], [121.42275, 24.30904], [121.43412, 24.32302], [121.43172, 24.33009], [121.43476, 24.34809], [121.44101, 24.3595], [121.45095, 24.36544], [121.46504, 24.35548], [121.48571, 24.34857], [121.49837, 24.33925], [121.52512, 24.34247], [121.53938, 24.33588], [121.54419, 24.33781], [121.55653, 24.33041], [121.55989, 24.32286], [121.60138, 24.31451], [121.60427, 24.32897], [121.62013, 24.34536], [121.62157, 24.36641], [121.63102, 24.37059], [121.64865, 24.34954], [121.66403, 24.34905], [121.67588, 24.33748], [121.68598, 24.34038], [121.68854, 24.33363], [121.69767, 24.33411], [121.71353, 24.32688], [121.74461, 24.32286], [121.75919, 24.31419], [121.77361, 24.31451], [121.76929, 24.3031], [121.75679, 24.29169], [121.74702, 24.27691], [121.74445, 24.26245], [121.72827, 24.24574], [121.7177, 24.24316], [121.70584, 24.22565], [121.6746, 24.20814], [121.66371, 24.19512], [121.65874, 24.17905], [121.6605, 24.16234], [121.66659, 24.14868], [121.66307, 24.13454], [121.65313, 24.1204], [121.63311, 24.10739], [121.61773, 24.08457], [121.61548, 24.07091], [121.62093, 24.04745], [121.62878, 24.03251], [121.64304, 24.01933], [121.64721, 24.00841], [121.64256, 23.99941], [121.63535, 24.00166], [121.63455, 23.9888], [121.61981, 23.97852], [121.60587, 23.95522], [121.61132, 23.93401], [121.60539, 23.91585], [121.60347, 23.88629], [121.59802, 23.86058], [121.58713, 23.82925], [121.57303, 23.80289], [121.57014, 23.78072], [121.57287, 23.76047], [121.56005, 23.72946], [121.55316, 23.72448], [121.54884, 23.71259], [121.55316, 23.69845], [121.54595, 23.67724], [121.54195, 23.65282], [121.53682, 23.65057], [121.53025, 23.62727], [121.52961, 23.5969], [121.52609, 23.57778], [121.51135, 23.55368], [121.50285, 23.51704], [121.50654, 23.49165], [121.51343, 23.48297], [121.50269, 23.46642], [121.49581, 23.43461], [121.48042, 23.43075], [121.47322, 23.44055], [121.462, 23.43943], [121.44742, 23.44377], [121.44085, 23.43397], [121.43332, 23.43284], [121.41954, 23.41934], [121.41041, 23.39878], [121.4, 23.38544], [121.40737, 23.36455], [121.42275, 23.36005], [121.40208, 23.33402], [121.39984, 23.32326], [121.39023, 23.32052], [121.38782, 23.31072], [121.37645, 23.29578], [121.37789, 23.26959], [121.3593, 23.25256], [121.36155, 23.24693], [121.35258, 23.23135], [121.35642, 23.22315], [121.34649, 23.21705], [121.34697, 23.20933], [121.33463, 23.17784], [121.32374, 23.17832], [121.31749, 23.16434], [121.32726, 23.15213], [121.32037, 23.13783], [121.32262, 23.11999], [121.31605, 23.11067], [121.30291, 23.11099], [121.28449, 23.1065], [121.27231, 23.09782], [121.2643, 23.10392], [121.26702, 23.11437], [121.24924, 23.13156], [121.23851, 23.12867], [121.23081, 23.13927], [121.21191, 23.14426], [121.21255, 23.15486], [121.19925, 23.17511], [121.19813, 23.1886], [121.19092, 23.20226], [121.17586, 23.21014], [121.1616, 23.20628], [121.156, 23.20017], [121.13981, 23.20146], [121.12924, 23.22331], [121.10857, 23.22347], [121.09239, 23.23392], [121.07958, 23.23279], [121.06243, 23.26589], [121.06211, 23.27907], [121.05634, 23.29016], [121.03888, 23.3006], [121.02831, 23.29707]]]}}, {"type": "Feature", "properties": {}, "geometry": {"type": "Polygon", "coordinates": [[[120.98601, 24.9394], [121.00299, 24.94004], [121.00716, 24.94615], [121.01934, 24.94037], [121.03776, 24.94631], [121.05763, 24.93297], [121.06083, 24.92028], [121.05907, 24.9071], [121.07108, 24.89955], [121.08358, 24.89875], [121.09111, 24.89345], [121.10905, 24.89779], [121.10841, 24.88606], [121.13565, 24.87802], [121.13885, 24.88236], [121.15584, 24.88059], [121.16128, 24.85954], [121.15199, 24.8438], [121.17634, 24.83191], [121.17378, 24.82757], [121.20326, 24.81728], [121.20742, 24.807], [121.2172, 24.81246], [121.22152, 24.79945], [121.24539, 24.807], [121.24716, 24.79736], [121.26126, 24.78997], [121.26029, 24.78193], [121.27712, 24.77101], [121.30147, 24.76313], [121.30772, 24.7551], [121.29858, 24.73084], [121.30756, 24.71991], [121.29955, 24.69661], [121.30387, 24.69291], [121.31813, 24.69806], [121.32967, 24.69099], [121.3388, 24.67958], [121.33976, 24.67042], [121.35354, 24.66624], [121.35226, 24.64487], [121.35802, 24.63362], [121.36555, 24.63073], [121.35882, 24.61739], [121.36347, 24.60293], [121.37244, 24.5941], [121.3875, 24.58654], [121.40304, 24.59168], [121.41201, 24.57305], [121.40384, 24.56887], [121.39487, 24.55617], [121.39679, 24.53978], [121.4016, 24.52934], [121.39055, 24.52291], [121.3835, 24.51006], [121.37324, 24.50958], [121.37132, 24.49833], [121.35722, 24.48628], [121.34553, 24.48419], [121.33623, 24.4678], [121.3239, 24.45687], [121.31669, 24.44177], [121.30451, 24.43277], [121.26862, 24.42747], [121.25949, 24.42907], [121.25805, 24.44096], [121.26254, 24.45527], [121.25805, 24.4633], [121.24443, 24.47005], [121.23466, 24.48772], [121.21864, 24.49833], [121.22345, 24.50604], [121.20086, 24.5115], [121.1866, 24.5054], [121.17795, 24.50765], [121.16913, 24.50267], [121.15023, 24.50636], [121.1451, 24.51199], [121.13693, 24.50668], [121.12379, 24.51006], [121.09848, 24.49656], [121.0863, 24.50106], [121.07188, 24.49833], [121.06692, 24.52275], [121.07829, 24.52886], [121.08038, 24.54123], [121.06275, 24.55746], [121.0706, 24.5634], [121.07541, 24.58108], [121.0831, 24.59008], [121.07365, 24.61322], [121.06243, 24.62173], [121.0533, 24.61547], [121.04321, 24.6272], [121.02943, 24.63282], [121.02526, 24.64118], [121.00812, 24.64439], [121.01036, 24.65628], [120.99707, 24.65467], [120.9772, 24.67428], [120.9764, 24.68327], [120.96582, 24.68488], [120.974, 24.69693], [120.97175, 24.71252], [120.95509, 24.70448], [120.9498, 24.71107], [120.93538, 24.71268], [120.93795, 24.72955], [120.94612, 24.7453], [120.95381, 24.74337], [120.96743, 24.75638], [120.96983, 24.76522], [120.97944, 24.76329], [120.98713, 24.76844], [120.98585, 24.77695], [120.99306, 24.78065], [121.01357, 24.77085], [121.01998, 24.75719], [121.03279, 24.76201], [121.02751, 24.78274], [121.02062, 24.79398], [121.01821, 24.80732], [121.00027, 24.8221], [120.95525, 24.83432], [120.93362, 24.85279], [120.93394, 24.8626], [120.94564, 24.87481], [120.95285, 24.89216], [120.96022, 24.90068], [120.96566, 24.91659], [120.98088, 24.93908], [120.98601, 24.9394]]]}}, {"type": "Feature", "properties": {}, "geometry": {"type": "Polygon", "coordinates": [[[120.93362, 24.85279], [120.95525, 24.83432], [121.00027, 24.8221], [121.01821, 24.80732], [121.02062, 24.79398], [121.02751, 24.78274], [121.03279, 24.76201], [121.01998, 24.75719], [121.01357, 24.77085], [120.99306, 24.78065], [120.98585, 24.77695], [120.98713, 24.76844], [120.97944, 24.76329], [120.96983, 24.76522], [120.96743, 24.75638], [120.95381, 24.74337], [120.94612, 24.7453], [120.93795, 24.72955], [120.93538, 24.71268], [120.916, 24.72055], [120.90591, 24.74064], [120.89101, 24.7318], [120.87851, 24.73517], [120.89966, 24.7604], [120.89277, 24.7694], [120.89245, 24.78836], [120.90366, 24.81744], [120.92321, 24.8446], [120.93362, 24.85279]]]}}, {"type": "Feature", "properties": {}, "geometry": {"type": "Polygon", "coordinates": [[[120.65357, 23.2246], [120.62826, 23.22942], [120.60983, 23.22267], [120.59718, 23.22894], [120.5866, 23.22412], [120.57827, 23.2148], [120.5653, 23.2209], [120.55488, 23.21769], [120.54158, 23.22781], [120.52636, 23.23102], [120.51899, 23.23938], [120.53053, 23.24902], [120.53197, 23.25545], [120.5222, 23.27393], [120.52188, 23.28791], [120.52604, 23.29241], [120.52252, 23.31169], [120.53998, 23.32792], [120.53373, 23.33643], [120.51563, 23.34366], [120.50794, 23.34302], [120.50361, 23.35122], [120.51194, 23.35523], [120.5049, 23.36889], [120.49432, 23.36953], [120.48439, 23.3795], [120.49929, 23.38785], [120.49016, 23.39556], [120.47942, 23.38753], [120.47333, 23.39813], [120.43825, 23.4134], [120.43056, 23.40665], [120.40813, 23.4134], [120.38105, 23.40344], [120.34949, 23.40135], [120.33363, 23.38592], [120.31104, 23.3856], [120.31104, 23.37548], [120.29294, 23.37532], [120.28589, 23.36712], [120.28605, 23.35025], [120.27611, 23.34832], [120.2657, 23.35234], [120.26714, 23.34061], [120.25641, 23.33113], [120.23782, 23.32695], [120.22084, 23.29594], [120.20418, 23.29192], [120.18848, 23.30124], [120.18063, 23.29096], [120.17101, 23.30462], [120.14858, 23.31442], [120.14858, 23.31972], [120.11814, 23.34013], [120.12295, 23.35459], [120.13897, 23.37419], [120.14426, 23.37259], [120.1473, 23.38448], [120.15772, 23.38319], [120.16364, 23.39299], [120.15996, 23.40617], [120.15419, 23.40424], [120.14826, 23.41517], [120.15131, 23.42609], [120.1465, 23.4375], [120.15467, 23.44779], [120.14458, 23.45968], [120.1441, 23.47012], [120.15579, 23.4841], [120.15515, 23.49101], [120.12471, 23.48876], [120.11943, 23.49551], [120.11895, 23.51511], [120.12728, 23.52025], [120.1425, 23.51736], [120.14586, 23.52074], [120.16653, 23.5172], [120.18047, 23.50997], [120.19569, 23.51286], [120.22308, 23.50435], [120.24151, 23.50901], [120.24711, 23.51624], [120.24215, 23.54146], [120.25609, 23.54612], [120.26282, 23.53423], [120.27243, 23.53134], [120.27611, 23.54307], [120.29085, 23.55126], [120.29326, 23.56412], [120.31056, 23.5646], [120.33251, 23.57826], [120.33363, 23.59176], [120.3567, 23.59401], [120.36647, 23.60783], [120.37977, 23.60991], [120.3865, 23.621], [120.40268, 23.62695], [120.42992, 23.61843], [120.4445, 23.63048], [120.4602, 23.6292], [120.47862, 23.63273], [120.48583, 23.63064], [120.50361, 23.6353], [120.50634, 23.62614], [120.51755, 23.61104], [120.53694, 23.59481], [120.55664, 23.59288], [120.57683, 23.58356], [120.61881, 23.5842], [120.62553, 23.59063], [120.64877, 23.59336], [120.64412, 23.57906], [120.65085, 23.57248], [120.67055, 23.57826], [120.67616, 23.57055], [120.69411, 23.57633], [120.70933, 23.57505], [120.71846, 23.5691], [120.73208, 23.57713], [120.73256, 23.59722], [120.72487, 23.60365], [120.73079, 23.61072], [120.75467, 23.61441], [120.76332, 23.61249], [120.77742, 23.60252], [120.80369, 23.59674], [120.81378, 23.60092], [120.82548, 23.58645], [120.81955, 23.57505], [120.82067, 23.56251], [120.8141, 23.55625], [120.80866, 23.53584], [120.82035, 23.52138], [120.82708, 23.48314], [120.83942, 23.47124], [120.86345, 23.47349], [120.88043, 23.46755], [120.88716, 23.47558], [120.91776, 23.47558], [120.93154, 23.4706], [120.93731, 23.47317], [120.9474, 23.46707], [120.95765, 23.46948], [120.94836, 23.46417], [120.93667, 23.46369], [120.92689, 23.45582], [120.91295, 23.45855], [120.90046, 23.45405], [120.88604, 23.43477], [120.86457, 23.42384], [120.84951, 23.42015], [120.84935, 23.41211], [120.83077, 23.38624], [120.82868, 23.37516], [120.80481, 23.36728], [120.78847, 23.35282], [120.78318, 23.34222], [120.75963, 23.34415], [120.75883, 23.33643], [120.7481, 23.32213], [120.73015, 23.31104], [120.73063, 23.30558], [120.71221, 23.30863], [120.70372, 23.30044], [120.70356, 23.28919], [120.69362, 23.28453], [120.67136, 23.29], [120.65806, 23.29594], [120.64204, 23.29305], [120.64396, 23.28148], [120.6422, 23.25673], [120.64861, 23.24886], [120.65357, 23.2246]]]}}, {"type": "Feature", "properties": {}, "geometry": {"type": "Polygon", "coordinates": [[[120.39419, 23.46257], [120.39932, 23.47108], [120.39435, 23.49085], [120.40396, 23.50386], [120.41213, 23.49904], [120.41774, 23.50563], [120.43312, 23.50884], [120.43504, 23.5172], [120.44802, 23.51816], [120.4642, 23.4992], [120.47349, 23.50692], [120.48311, 23.50531], [120.48775, 23.49197], [120.50137, 23.48972], [120.50922, 23.47478], [120.49528, 23.45293], [120.48968, 23.45228], [120.47686, 23.46193], [120.46869, 23.4616], [120.45283, 23.44489], [120.43969, 23.43959], [120.42928, 23.46096], [120.41518, 23.46032], [120.41133, 23.46482], [120.39419, 23.46257]]]}}, {"type": "Feature", "properties": {}, "geometry": {"type": "Polygon", "coordinates": [[[120.64027, 23.78602], [120.63018, 23.78972], [120.59269, 23.791], [120.552, 23.80097], [120.51098, 23.80016], [120.48311, 23.80659], [120.45203, 23.81719], [120.43312, 23.83021], [120.41037, 23.82635], [120.37032, 23.8286], [120.36006, 23.8233], [120.30816, 23.82025], [120.25513, 23.83423], [120.24231, 23.84226], [120.26041, 23.86203], [120.26986, 23.86845], [120.27611, 23.86652], [120.28749, 23.87552], [120.31905, 23.93578], [120.30447, 23.9406], [120.32113, 23.96567], [120.32994, 23.98864], [120.34901, 23.99041], [120.34981, 24.00214], [120.3716, 24.0399], [120.39643, 24.05163], [120.39819, 24.05838], [120.37801, 24.05806], [120.37753, 24.07654], [120.39691, 24.0857], [120.42623, 24.08425], [120.43104, 24.09534], [120.43648, 24.12137], [120.41758, 24.12137], [120.41197, 24.10337], [120.39419, 24.10642], [120.40396, 24.12587], [120.41406, 24.13181], [120.43937, 24.15881], [120.45956, 24.15897], [120.46228, 24.16813], [120.48583, 24.19737], [120.50794, 24.18725], [120.52572, 24.149], [120.52364, 24.13952], [120.53277, 24.12635], [120.54975, 24.11381], [120.57283, 24.10819], [120.61256, 24.10257], [120.61528, 24.08393], [120.62537, 24.06866], [120.62345, 24.05195], [120.6281, 24.03829], [120.6446, 24.02592], [120.65581, 24.03058], [120.67873, 24.01403], [120.67248, 24.00584], [120.64236, 24.00889], [120.63755, 23.99362], [120.64989, 23.98527], [120.64684, 23.96342], [120.63531, 23.95233], [120.6273, 23.95201], [120.63643, 23.93755], [120.62938, 23.92967], [120.63707, 23.92453], [120.63194, 23.90332], [120.63499, 23.89866], [120.62009, 23.86556], [120.62666, 23.85833], [120.61881, 23.84178], [120.6265, 23.84082], [120.63659, 23.82475], [120.65197, 23.81253], [120.6744, 23.82009], [120.67905, 23.80595], [120.66655, 23.79357], [120.64027, 23.78602]]]}}, {"type": "Feature", "properties": {}, "geometry": {"type": "Polygon", "coordinates": [[[119.98677, 26.27676], [119.99783, 26.27371], [119.99158, 26.26519], [119.98437, 26.26793], [119.98677, 26.27676]]]}}, {"type": "Feature", "properties": {}, "geometry": {"type": "Polygon", "coordinates": [[[119.96979, 26.16364], [119.96979, 26.1638], [119.96995, 26.1638], [119.97043, 26.16412], [119.96979, 26.16364]]]}}, {"type": "Feature", "properties": {}, "geometry": {"type": "Polygon", "coordinates": [[[119.97748, 26.19867], [119.97107, 26.2014], [119.97684, 26.2194], [119.98869, 26.22374], [120.00087, 26.23691], [120.01176, 26.2329], [120.01208, 26.22101], [119.99254, 26.21715], [119.97812, 26.2096], [119.97748, 26.19867]]]}}, {"type": "Feature", "properties": {}, "geometry": {"type": "Polygon", "coordinates": [[[119.97315, 26.16637], [119.97043, 26.16412], [119.96995, 26.1638], [119.96979, 26.1638], [119.96979, 26.16364], [119.96915, 26.16348], [119.96771, 26.15705], [119.94752, 26.14195], [119.94127, 26.14404], [119.93134, 26.13697], [119.91419, 26.14404], [119.92925, 26.16091], [119.94239, 26.15368], [119.95441, 26.16621], [119.97315, 26.16637]]]}}, {"type": "Feature", "properties": {}, "geometry": {"type": "Polygon", "coordinates": [[[119.93486, 25.9697], [119.93182, 25.9803], [119.95008, 25.98111], [119.95409, 25.97773], [119.94063, 25.96665], [119.93486, 25.9697]]]}}, {"type": "Feature", "properties": {}, "geometry": {"type": "Polygon", "coordinates": [[[119.4201, 23.20387], [119.41001, 23.21367], [119.43997, 23.22138], [119.44381, 23.21447], [119.44269, 23.20033], [119.43564, 23.20178], [119.42202, 23.19246], [119.4201, 23.20387]]]}}, {"type": "Feature", "properties": {}, "geometry": {"type": "Polygon", "coordinates": [[[119.60627, 23.75148], [119.61171, 23.74183], [119.60338, 23.73187], [119.59585, 23.73766], [119.60627, 23.75148]]]}}, {"type": "Feature", "properties": {}, "geometry": {"type": "Polygon", "coordinates": [[[119.66539, 23.25866], [119.67948, 23.263], [119.67211, 23.24436], [119.66507, 23.25063], [119.66539, 23.25866]]]}}, {"type": "Feature", "properties": {}, "geometry": {"type": "Polygon", "coordinates": [[[119.49236, 23.38142], [119.49812, 23.39203], [119.50806, 23.39074], [119.50774, 23.36487], [119.50485, 23.35539], [119.48627, 23.35604], [119.4946, 23.36536], [119.49236, 23.38142]]]}}, {"type": "Feature", "properties": {}, "geometry": {"type": "Polygon", "coordinates": [[[119.31516, 23.40038], [119.31901, 23.41163], [119.32894, 23.40713], [119.32766, 23.40087], [119.31516, 23.40038]]]}}, {"type": "Feature", "properties": {}, "geometry": {"type": "Polygon", "coordinates": [[[119.5236, 23.366], [119.53754, 23.37419], [119.54026, 23.36632], [119.5236, 23.366]]]}}, {"type": "Feature", "properties": {}, "geometry": {"type": "Polygon", "coordinates": [[[119.58095, 23.66149], [119.57134, 23.66246], [119.56429, 23.65282], [119.55404, 23.65699], [119.54074, 23.6406], [119.5401, 23.63402], [119.51735, 23.62679], [119.5212, 23.62068], [119.52312, 23.60172], [119.51254, 23.5924], [119.51511, 23.56412], [119.49796, 23.56814], [119.48963, 23.56267], [119.468, 23.56348], [119.48339, 23.57537], [119.49188, 23.5699], [119.50341, 23.57922], [119.50341, 23.58903], [119.49156, 23.59818], [119.50213, 23.60365], [119.5087, 23.61329], [119.50005, 23.61859], [119.50213, 23.63096], [119.51158, 23.64767], [119.53113, 23.639], [119.54026, 23.64044], [119.5542, 23.65764], [119.55516, 23.66856], [119.57006, 23.67113], [119.5824, 23.67756], [119.59233, 23.67162], [119.59794, 23.67451], [119.60851, 23.66294], [119.61204, 23.65008], [119.60082, 23.648], [119.60226, 23.62839], [119.61316, 23.62036], [119.6122, 23.60268], [119.63286, 23.59529], [119.64664, 23.60108], [119.65465, 23.59947], [119.66106, 23.59015], [119.68061, 23.58533], [119.68317, 23.56573], [119.69358, 23.55512], [119.6782, 23.55143], [119.67468, 23.56123], [119.64632, 23.56058], [119.63142, 23.54773], [119.61572, 23.53889], [119.60595, 23.52925], [119.60627, 23.50788], [119.59698, 23.5127], [119.57182, 23.50868], [119.57406, 23.51993], [119.60306, 23.54034], [119.59954, 23.54998], [119.59185, 23.55319], [119.57294, 23.54628], [119.57983, 23.56348], [119.5675, 23.57505], [119.56205, 23.58533], [119.57439, 23.58485], [119.58544, 23.57376], [119.5973, 23.5691], [119.59842, 23.58276], [119.60659, 23.58533], [119.6029, 23.60059], [119.60499, 23.60927], [119.5973, 23.61586], [119.59938, 23.62229], [119.58912, 23.62518], [119.59585, 23.63466], [119.5824, 23.65266], [119.58095, 23.66149]]]}}, {"type": "Feature", "properties": {}, "geometry": {"type": "Polygon", "coordinates": [[[118.36479, 24.42843], [118.35053, 24.42136], [118.34011, 24.40883], [118.3305, 24.38874], [118.32009, 24.38601], [118.2983, 24.39662], [118.27811, 24.41365], [118.29958, 24.41638], [118.30102, 24.42441], [118.3108, 24.42859], [118.3031, 24.46153], [118.28788, 24.46908], [118.29189, 24.47824], [118.30519, 24.48772], [118.31416, 24.48949], [118.34492, 24.467], [118.36879, 24.46105], [118.38433, 24.46764], [118.38577, 24.48322], [118.39507, 24.49094], [118.39234, 24.50909], [118.41205, 24.51954], [118.41862, 24.52789], [118.42535, 24.52564], [118.43143, 24.51022], [118.44826, 24.50845], [118.46187, 24.47551], [118.46284, 24.46185], [118.47197, 24.45189], [118.47277, 24.44145], [118.46107, 24.43614], [118.46572, 24.42875], [118.45595, 24.42522], [118.45434, 24.41815], [118.44329, 24.41108], [118.43416, 24.41493], [118.42759, 24.42538], [118.41365, 24.42747], [118.39523, 24.4363], [118.36479, 24.42843]]]}}, {"type": "Feature", "properties": {}, "geometry": {"type": "Polygon", "coordinates": [[[118.26337, 24.42538], [118.25232, 24.42457], [118.24783, 24.41622], [118.23485, 24.41397], [118.22604, 24.40497], [118.21707, 24.42522], [118.22716, 24.43036], [118.22909, 24.44643], [118.25152, 24.45269], [118.26706, 24.44337], [118.26337, 24.42538]]]}}]}